NAME,CITY,STATE,ZIP
DEVINE H S,DEVINE,TX,78016
AMI KIDS RIO GRANDE VALLEY (FKA RGMI),LOS FRESNOS,TX,78566
GARY AND BOBBYE JACK MINSHEW EL,MCKINNEY,TX,75071
ACHIEVE EARLY COLLEGE H S,MCALLEN,TX,78501
MISSION RIDGE,EL PASO,TX,79928
RICHLAND EL,RICHLAND HILLS,TX,76118
PREMIER H S OF PFLUGERVILLE,PFLUGERVILLE,TX,78660
CIELO VISTA EL,EL PASO,TX,79925
LANNY FRASIER MIDDLE,MESQUITE,TX,75149
VERAMENDI EL,NEW BRAUNFELS,TX,78132
PREPARATORY FOR EARLY COLLEGE H S,RIO GRANDE CITY,TX,78582
WEST WARD EL,KILLEEN,TX,76541
DANBURY MIDDLE,DANBURY,TX,77534
WILLOW WOOD J H,TOMBALL,TX,77377
WALLER J H,WALLER,TX,77484
CANYON VISTA MIDDLE,AUSTIN,TX,78759
ROOSEVELT-WILSON EL,TEXAS CITY,TX,77591
LIECK EL,SAN ANTONIO,TX,78245
AUSTIN EL,SAN ANGELO,TX,76901
FRY INT,TEXAS CITY,TX,77590
DARROUZETT SCHOOLS,DARROUZETT,TX,79024
A M PATE EL,FORT WORTH,TX,76119
LEE EL,AUSTIN,TX,78705
BARBARA JORDAN EL,DALLAS,TX,75224
LOHN SCHOOL,LOHN,TX,76852
BENBROOK EL,FORT WORTH,TX,76126
TULOSO-MIDWAY H S,CORPUS CHRISTI,TX,78410
TEXAS ONLINE PREPARATORY H S,HUNTSVILLE,TX,77320
JACKSONVILLE H S,JACKSONVILLE,TX,75766
KIPP AUSTIN CONNECTIONS EL,AUSTIN,TX,78724
ODESSA KILPATRICK EL,KATY,TX,77494
SAN JACINTO EL,ODESSA,TX,79763
CESAR E CHAVEZ ACADEMY,CORPUS CHRISTI,TX,78411
STAFFORD EL,SAN ANTONIO,TX,78237
PLACEDO EL,PLACEDO,TX,77977
POST H S,POST,TX,79356
BRACKETT J H,BRACKETTVILLE,TX,78832
LYNDON B JOHNSON MIDDLE,JOHNSON CITY,TX,78636
SULPHUR SPRINGS H S,SULPHUR SPRINGS,TX,75482
HARVARD EL,HOUSTON,TX,77007
CELIA HAYS EL,ROCKWALL,TX,75087
SOMERSET H S,SOMERSET,TX,78069
HAROLD T BRANCH ACADEMY FOR CAREER & TECHNICAL ED,CORPUS CHRISTI,TX,78405
FURR H S,HOUSTON,TX,77013
WEST HARDIN H S,SARATOGA,TX,77585
IRVIN H S,EL PASO,TX,79924
NORTH RICHLAND MIDDLE,NORTH RICHLAND HILLS,TX,76180
CRESTVIEW EL,NEW BOSTON,TX,75570
EAST CHAMBERS H S,WINNIE,TX,77665
GAINESVILLE H S,GAINESVILLE,TX,76240
ALTER DISCIPLINE CAMPUS,FORT WORTH,TX,76179
TRANSMOUNTAIN EARLY COLLEGE H S,EL PASO,TX,79925
RUSSELL P SCHUPMANN EL,GLENN HEIGHTS,TX,75154
BETHKE EL,KATY,TX,77493
VALLEY VIEW SOUTH EL,PHARR,TX,78577
MONTGOMERY J H,MONTGOMERY,TX,77356
O'BANION MIDDLE,GARLAND,TX,75043
MORRIS MIDDLE,MCALLEN,TX,78504
CALLISBURG H S,CALLISBURG,TX,76240
SLAUGHTER EL,MCKINNEY,TX,75070
ALLEN EL,FRISCO,TX,75034
GRAHAM LEARNING CTR,GRAHAM,TX,76450
SHARON SHANNON EL,ROCKWALL,TX,75032
PREMIER H S OF COMANCHE/EARLY,EARLY,TX,76802
HARDIN-JEFFERSON H S,SOUR LAKE,TX,77659
CEDAR VALLEY MIDDLE,AUSTIN,TX,78717
TOM WILSON EL,KATY,TX,77494
SUSANNA DICKINSON EL,SUGAR LAND,TX,77479
BOWIE H S,EL PASO,TX,79905
NORTH DALLAS H S,DALLAS,TX,75204
AUSTIN MONTESSORI MAGNET,ODESSA,TX,79761
JOE V HART EL,LUCAS,TX,75002
ROBERT CRIPPEN EL,PORTER,TX,77365
MT ENTERPRISE EL,MT ENTERPRISE,TX,75681
ARABIC IMMERSION MAGNET SCHOOL,HOUSTON,TX,77006
HODGES EL,LUBBOCK,TX,79412
BRADY MIDDLE,BRADY,TX,76825
GREAT HEARTS MONTE VISTA NORTH,SAN ANTONIO,TX,78212
ATASCOCITA MIDDLE,HUMBLE,TX,77346
LIBERTY HILL J H,LIBERTY HILL,TX,78642
WHITE MIDDLE,SAN ANTONIO,TX,78218
REMYNSE EL,GRAND PRAIRIE,TX,75052
MITCHELL EL,BRYAN,TX,77808
LORAINE T GOLBOW EL,KATY,TX,77449
GULLEDGE EL,PLANO,TX,75024
ISCHOOL HIGH AT THE WOODLANDS,CONROE,TX,77384
AUSTIN OAKS,AUSTIN,TX,78745
MONTANA VISTA EL,EL PASO,TX,79938
TRIUMPH PUBLIC HIGH SCHOOLS-EL PASO EAST,EL PASO,TX,79936
LAMAR CONS H S,ROSENBERG,TX,77471
MACARIO GARCIA MIDDLE,SUGAR LAND,TX,77498
GILBERT F M EL,IRVING,TX,75061
PLANO SPECIAL PROGRAMS CENTER,NEVADA,TX,75173
LOVEJOY H S,LUCAS,TX,75002
CONNALLY PRI,ELM MOTT,TX,76640
NORTH BRIDGE EL,WESLACO,TX,78596
MACARTHUR H S,IRVING,TX,75062
BOVINA MIDDLE,BOVINA,TX,79009
LEON SPRINGS EL,SAN ANTONIO,TX,78257
GEORGE W BUSH EL,ST PAUL,TX,75098
JP COWEN ACHIEVEMENT CENTER,SWEETWATER,TX,79556
ELLA SCHORLEMMER EL,VICTORIA,TX,77904
HEALY-MURPHY,SAN ANTONIO,TX,78202
LAMESA SCHOOLS,LAMESA,TX,79331
STUART CAREER TECH H S,BAYTOWN,TX,77521
SILSBEE EL,SILSBEE,TX,77656
HENRY FORD EL,PHARR,TX,78577
JUDSON LEARNING ACAD,SAN ANTONIO,TX,78247
BRAZORIA CO J J A E P,SWEENY,TX,77480
MCNEIL H S,AUSTIN,TX,78729
WORTH HEIGHTS EL,FORT WORTH,TX,76110
EL MAGNET AT REAGAN EL,ODESSA,TX,79761
KAUFMAN EL,SPRING,TX,77386
GUS BIRDWELL EL,SPEARMAN,TX,79081
LATEXO H S,LATEXO,TX,75849
SMITHSON VALLEY H S,SPRING BRANCH,TX,78070
DE ZAVALA EL,MIDLAND,TX,79701
WILLIAMSON COUNTY JJAEP,GEORGETOWN,TX,78628
JACK D JOHNSON EL,SOUTHLAKE,TX,76092
HUFFMAN EL,HUFFMAN,TX,77336
COPPELL MIDDLE NORTH,COPPELL,TX,75019
TAYLOR EL,MERCEDES,TX,78570
A G ELDER EL,JOSHUA,TX,76058
TRANSFORMING LIVES COOPERATIVE (TLC),DICKINSON,TX,77539
ROGERS MIDDLE,ROGERS,TX,76569
NORTH SHORE SENIOR HIGH,HOUSTON,TX,77049
SABINE PASS SCHOOL,SABINE PASS,TX,77655
MOSS EL,BIG SPRING,TX,79720
HUDDLESTON SPECIAL PROGRAMS CENTER,PRINCETON,TX,75407
POINT ALTERNATIVE CENTER,BAYTOWN,TX,77520
CEDAR RIDGE EL,WACO,TX,76708
WESTWIND EL,LUBBOCK,TX,79407
SILVERLAKE EL,PEARLAND,TX,77584
CHALLENGE ACADEMY,WACO,TX,76704
DEVINE MIDDLE,DEVINE,TX,78016
WELCH MIDDLE,HOUSTON,TX,77071
LAKE CREEK H S,MONTGOMERY,TX,77316
MIRELES EL,SAN ANTONIO,TX,78253
TREVINO EL,EDINBURG,TX,78539
ENCINO PARK EL,SAN ANTONIO,TX,78259
AMBASSADORS PREPARATORY ACADEMY,GALVESTON,TX,77551
MARTIN EL,WEATHERFORD,TX,76087
ORANGEFIELD J H,ORANGEFIELD,TX,77639
SOUTH BELT EL,HOUSTON,TX,77089
STUBBLEFIELD LRN CTR,LUFKIN,TX,75904
JUDSON EARLY COLLEGE ACADEMY,LIVE OAK,TX,78233
EAST FORT WORTH MONTESSORI ACADEMY,FORT WORTH,TX,76103
HUNT EL,CUERO,TX,77954
GUYER H S,DENTON,TX,76210
CHALLENGE EARLY COLLEGE H S,HOUSTON,TX,77081
DRIPPING SPRINGS H S,DRIPPING SPRINGS,TX,78620
MADISON H S,HOUSTON,TX,77045
CHAPEL HILL H S,MOUNT PLEASANT,TX,75455
LAKEVIEW EL,LITTLE ELM,TX,75068
TICE EL,HOUSTON,TX,77049
MAUDE I LOGAN EL,FORT WORTH,TX,76105
SANTA FE H S,SANTA FE,TX,77517
ROBINSON EL,KATY,TX,77449
BELL CO J J A E P,KILLEEN,TX,76543
TIBBALS EL,WYLIE,TX,75098
WELLINGTON H S,WELLINGTON,TX,79095
WELLS EL,WELLS,TX,75976
ALTERNATIVE CENTER,SAN ANTONIO,TX,78237
CROCKETT MIDDLE,AMARILLO,TX,79106
MARY JO SHEPPARD EL,MANSFIELD,TX,76063
BOWIE MIDDLE,IRVING,TX,75060
LOSOYA MIDDLE,SAN ANTONIO,TX,78221
L V STOCKARD MIDDLE,DALLAS,TX,75211
OLD SETTLERS EL,FLOWER MOUND,TX,75022
DANBURY H S,DANBURY,TX,77534
UPLIFT MIGHTY H S,FORT WORTH,TX,76105
OAK RIDGE H S,CONROE,TX,77385
STARKEY EL,KERRVILLE,TX,78028
DOBIE H S,HOUSTON,TX,77089
EXCEL H S OF CHOICE,LONGVIEW,TX,75604
COMMERCE MIDDLE,COMMERCE,TX,75428
BESTEIRO MIDDLE,BROWNSVILLE,TX,78521
SANFORD-FRITCH H S,FRITCH,TX,79036
GOLIAD H S,GOLIAD,TX,77963
BAGDAD EL,LEANDER,TX,78641
OWENS INT,HOUSTON,TX,77072
WODEN J H,WODEN,TX,75978
KIRBYVILLE J H,KIRBYVILLE,TX,75956
NORTH EULESS EL,EULESS,TX,76039
BONNIE HOLLAND EL,KATY,TX,77449
SNOW HEIGHTS EL,NORTH RICHLAND HILLS,TX,76180
IDEA ACADEMY SAN BENITO,SAN BENITO,TX,78586
PECAN CREEK EL,DENTON,TX,76208
PEREZ EL,AUSTIN,TX,78744
COTULLA H S,COTULLA,TX,78014
ALIEF EARLY COLLEGE H S,HOUSTON,TX,77082
SOUTH TEXAS ISD WORLD SCHOLARS,EDINBURG,TX,78539
H D STAPLES EL,JOSHUA,TX,76058
T R U C E LEARNING CTR,FORT WORTH,TX,76114
JAMES MIDDLE,FORT WORTH,TX,76105
ANNA MAY DAULTON EL,GRAND PRAIRIE,TX,75054
G O A L S PROGRAM,CUERO,TX,77954
MEMORIAL EL,PLANO,TX,75074
NORTH EL,BRECKENRIDGE,TX,76424
JO ANN FORD EL,GEORGETOWN,TX,78633
WESTERN HILLS PRI,FORT WORTH,TX,76116
KELLER-HARVEL EL,KELLER,TX,76248
THREE LAKES MIDDLE,TYLER,TX,75703
KOUNTZE MIDDLE,KOUNTZE,TX,77625
FAIRMEADOWS EL,DUNCANVILLE,TX,75116
CANYON LAKE H S,FISCHER,TX,78623
CARROLL SENIOR H S,SOUTHLAKE,TX,76092
PETROSKY EL,HOUSTON,TX,77083
FALLBROOK ACADEMY,HOUSTON,TX,77014
EL #31,HUMBLE,TX,77338
CHARLOTTE ANDERSON EL,ARLINGTON,TX,76017
LUCKEY RANCH EL,SAN ANTONIO,TX,78252
BOYD H S,BOYD,TX,76023
FANNIN EL,BRYAN,TX,77803
HAMILTON PARK PACESETTER MAGNET,DALLAS,TX,75243
SNYDER ACADEMY,HERMLEIGH,TX,79526
COLUMBUS EL,COLUMBUS,TX,78934
BRUNI MIDDLE,BRUNI,TX,78344
TARRANT YOUTH RECOVERY,FT WORTH,TX,76107
SOUTHWEST PREPARATORY SCHOOL-NORTHWEST,SAN ANTONIO,TX,78238
MCCAMEY H S,MCCAMEY,TX,79752
MANARA ACADEMY,IRVING,TX,75063
CABLE EL,SAN ANTONIO,TX,78227
WEST AVENUE EL,WACO,TX,76707
KLONDIKE ISD,LAMESA,TX,79331
BLUE HAZE EL,FORT WORTH,TX,76108
CLIFTON MIDDLE,CLIFTON,TX,76634
UNION GROVE H S,GLADEWATER,TX,75647
HILLCREST EL,PLAINVIEW,TX,79072
PATTON SPRINGS SCHOOL,AFTON,TX,79220
RIVER ROAD H S,AMARILLO,TX,79108
YES PREP - NORTH CENTRAL,HOUSTON,TX,77039
SAN JACINTO EL,BAYTOWN,TX,77520
HARRIS MIDDLE,SAN ANTONIO,TX,78204
GAINESVILLE J H,GAINESVILLE,TX,76240
ZAPATA NORTH EL,ZAPATA,TX,78076
POST EL,POST,TX,79356
MERCEDES DAEP,MERCEDES,TX,78570
CLEAR PATH ALTERNATIVE SCHOOL,WEBSTER,TX,77598
GOLDEN RULE,DALLAS,TX,75211
KNOWLTON EL,SAN ANTONIO,TX,78250
IMPACT EARLY COLLEGE H S,BAYTOWN,TX,77520
TATUM EL,FARMERSVILLE,TX,75442
PECAN SPRINGS EL,AUSTIN,TX,78723
YES PREP - SOUTHWEST,HOUSTON,TX,77053
JOHN D SPICER EL,HALTOM CITY,TX,76137
WASHINGTON HEIGHTS EL,FORT WORTH,TX,76106
SOUTH TEXAS ISD RISING SCHOLARS ACADEMY,SAN BENITO,TX,78586
SHAMROCK H S,SHAMROCK,TX,79079
BROOKS ACADEMY OF SCIENCE AND ENGINEERING,SAN ANTONIO,TX,78235
BEBENSEE EL,ARLINGTON,TX,76018
A & M CONS H S,COLLEGE STATION,TX,77840
SUCHMA EL,CONROE,TX,77385
FAIRVIEW ACCELERATED,SAN ANGELO,TX,76904
KARNES CITY J J A E P,FLORESVILLE,TX,78114
ANNA MIDDLE,ANNA,TX,75409
MERCER & BLUMBERG LRN CTR,SEGUIN,TX,78155
MERIDIAN EL,MERIDIAN,TX,76665
MARTHA TURNER REILLY EL,DALLAS,TX,75218
BROWN MIDDLE,EL PASO,TX,79912
MARTIN H S,LAREDO,TX,78040
LOCKNEY DAEP,PLAINVIEW,TX,79072
TRAVIS COUNTY DAY SCHOOL,AUSTIN,TX,78754
RIVER OAKS EL,AUSTIN,TX,78758
ELAINE S SCHLATHER INT,CIBOLO,TX,78108
PSJA EARLY COLLEGE H S,SAN JUAN,TX,78589
LA VEGA EL,WACO,TX,76705
RESERVED FOR FUTURE USE,DALLAS,TX,75241
CHINA SPRING INT,WACO,TX,76708
BOWIE EL,DALLAS,TX,75248
CHET BURCHETT EL,SPRING,TX,77373
FISHER ELEMENTARY,PASADENA,TX,77502
DAVID K SELLARS EL,FORT WORTH,TX,76119
MADING EL,HOUSTON,TX,77033
SAN MARCOS H S,SAN MARCOS,TX,78666
NEW HOPE H S,LEANDER,TX,78641
VANGUARD PICASSO,PHARR,TX,78577
FORESTRIDGE EL,DALLAS,TX,75243
JOHN F KENNEDY EL,PENITAS,TX,78576
BLOSSOM EL,BLOSSOM,TX,75416
KAZEN EL,LAREDO,TX,78041
RICHLAND EL,RICHARDSON,TX,75081
REAGAN COUNTY H S,BIG LAKE,TX,76932
CHALLENGE ACADEMY,WACO,TX,76704
TRAVIS MIDDLE,QUANAH,TX,79252
RITA SMITH EL,WYLIE,TX,75098
HECTOR P GARCIA EL,TEMPLE,TX,76501
JOHN & OLIVE HINOJOSA EL,RIO GRANDE CITY,TX,78582
SOUTHWEST KEY,COMBES,TX,78535
TEXAS CITY J J A E P,DICKINSON,TX,77539
ROQUE GUERRA JR EL,RIO GRANDE CITY,TX,78582
PEETE EL,TYLER,TX,75701
BRAZORIA CO JUVENILE DETENTION,ANGLETON,TX,77515
STERLING H S,BAYTOWN,TX,77521
MORRIS MIDDLE,HOUSTON,TX,77089
MAYDE CREEK EL,HOUSTON,TX,77084
ROCK PRAIRIE EL,COLLEGE STATION,TX,77845
KLEIN ANNEX,KLEIN,TX,77379
ROBBIN E L WASHINGTON INTERNATIONAL EL,EL PASO,TX,79936
LUJAN-CHAVEZ EL,EL PASO,TX,79938
MANVEL H S,MANVEL,TX,77578
MINERAL WELLS/PALO PINTO COUNTY DAEP,MINERAL WELLS,TX,76067
PYBURN EL,HOUSTON,TX,77015
BROWNWOOD ACCELERATED H S,BROWNWOOD,TX,76801
SAN JACINTO EL,AMARILLO,TX,79106
LOVETT EL,HOUSTON,TX,77096
LAKESIDE MIDDLE,LITTLE ELM,TX,75068
JOHN C WEBB EL,NAVASOTA,TX,77868
CHAPEL HILL EL,MOUNT PLEASANT,TX,75455
SOUTH HILLS EL,FORT WORTH,TX,76133
CHAPEL HILL J H,TYLER,TX,75707
LOGAN EL,EL PASO,TX,79904
WESLACO 21ST CENTURY CTE EARLY COLLEGE H S,WESLACO,TX,78596
NEW CANEY EL,NEW CANEY,TX,77357
HARDIN CO ALTERNATIVE AEP,KOUNTZE,TX,77625
BRIESEMEISTER MIDDLE,SEGUIN,TX,78155
ANAHUAC MIDDLE,ANAHUAC,TX,77514
CROSSTIMBERS ACADEMY,WEATHERFORD,TX,76087
WINONA MIDDLE,WINONA,TX,75792
JAMES COBLE MIDDLE,ARLINGTON,TX,76002
WALNUT GLEN ACAD FOR EXCEL,GARLAND,TX,75042
BRIDLEWOOD EL,FLOWER MOUND,TX,75028
CARSON PARKE,HOUSTON,TX,77060
BASSWOOD EL,FORT WORTH,TX,76137
LANIER MIDDLE,HOUSTON,TX,77098
GRUVER J H,GRUVER,TX,79040
GREENWOOD FOREST EL,HOUSTON,TX,77066
WALL SPECIAL PROGRAMS,PAINT ROCK,TX,76866
TRAVIS EL,GREENVILLE,TX,75401
REAGAN H S,SAN ANTONIO,TX,78258
H O WHITEHURST EL,GROESBECK,TX,76642
ELLIOTT EL,MCKINNEY,TX,75070
LADY BIRD JOHNSON MIDDLE,IRVING,TX,75061
WESTERN HILLS H S,FORT WORTH,TX,76116
FAIRVIEW DAEP,SAN ANGELO,TX,76904
BRIDGE CITY EL,BRIDGE CITY,TX,77611
NEW DEAL DAEP,NEW DEAL,TX,79350
FAIRVIEW ACCELERATED,SAN ANGELO,TX,76904
MORENO EL,EL PASO,TX,79930
LORENA PRI,LORENA,TX,76655
RAMIREZ EL,LUBBOCK,TX,79401
CROCKETT EL,CORPUS CHRISTI,TX,78416
ELROD EL,SAN ANTONIO,TX,78250
LIBERTY EL,AZLE,TX,76020
ROY J SMITH MIDDLE,KILLEEN,TX,76549
MOUNT PLEASANT DAEP,MOUNT PLEASANT,TX,75455
MACARTHUR EL,GALENA PARK,TX,77547
MATTHYS EL,SOUTH HOUSTON,TX,77587
COLLEGE VIEW H S,COLLEGE STATION,TX,77840
MEMORIAL INT,ALICE,TX,78332
TURNER PREKINDERGARTEN ACADEMY,WAXAHACHIE,TX,75165
POR VIDA ACADEMY CHARTER H S,SAN ANTONIO,TX,78210
ROSS MIDDLE,EL PASO,TX,79925
LAMAR EL,THE WOODLANDS,TX,77380
M L KING MIDDLE,BEAUMONT,TX,77701
MESQUITE H S,MESQUITE,TX,75149
WILDERNESS OAK EL,SAN ANTONIO,TX,78258
EXCEL ACADEMY,HOUSTON,TX,77054
ALICE H S,ALICE,TX,78332
DR T C MCCORMICK JR MIDDLE,BUDA,TX,78610
TIDEHAVEN INT,EL MATON,TX,77440
SCIENCE CTR,HOUSTON,TX,77055
GRIMES EDUCATION CENTER,CARROLLTON,TX,75006
VISTA ACADEMY OF WILLIS,CONROE,TX,77384
WINFREE ACADEMY NORTH RICHLAND HILLS,NORTH RICHLAND HILLS,TX,76180
BLACK EL,MESQUITE,TX,75149
HARLINGEN H S - SOUTH,HARLINGEN,TX,78552
DOLORES HUERTA EL,FORT WORTH,TX,76106
DANISH EL,HOUSTON,TX,77065
MORTON SCHOOL,MORTON,TX,79346
DEARING EL,ROUND ROCK,TX,78664
PREMIER H S OF BROWNSVILLE,BROWNSVILLE,TX,78521
TRAVIS B BRYAN H S,BRYAN,TX,77802
VERNON H S,VERNON,TX,76384
ROBERT R VELA H S,EDINBURG,TX,78539
WASHINGTON EL,BIG SPRING,TX,79720
CENTERVILLE EL,GARLAND,TX,75041
SER-NINOS CHARTER EL II,HOUSTON,TX,77081
LAS YESCAS EL,SAN BENITO,TX,78586
NEEDVILLE H S,NEEDVILLE,TX,77461
CROSS ROADS J H,MALAKOFF,TX,75148
FERRIS H S,FERRIS,TX,75125
CLAYBON EL,FORNEY,TX,75126
E-10 NW EL,EL PASO,TX,79925
JEAN & BETTY SCHMALZ EL,HOUSTON,TX,77084
JOHN AND SHAMARION BARBER MIDDLE,DICKINSON,TX,77539
MILLSAP EL,CYPRESS,TX,77429
WILLIAMS EL,LUBBOCK,TX,79414
ACADEMY FOR TECHNOLOGY ENGINEERING MATH & SCIENCE,ABILENE,TX,79601
LOMA PARK EL,SAN ANTONIO,TX,78228
PLUM CREEK EL,LOCKHART,TX,78644
HASLET EL,HASLET,TX,76052
AD WHEAT MIDDLE,CLEBURNE,TX,76033
COMMUNITY SCHOOL,PASADENA,TX,77503
WINDSOR VILLAGE EL,HOUSTON,TX,77085
MILLER EL,LITTLE ELM,TX,75068
COASTAL ALTERNATIVE PROGRAM (CAP),SANTA FE,TX,77510
LIFE SCHOOL CEDAR HILL,CEDAR HILL,TX,75104
BOWIE EL,GREENVILLE,TX,75402
SIMMS EL,LA MARQUE,TX,77568
NEWTON COLLINS EL,AUSTIN,TX,78744
YOUNG WOMEN'S LEADERSHIP ACADEMY,FORT WORTH,TX,76104
MART ACADEMIC ALERNATIVE PROGRAM,MART,TX,76664
GALM EL,SAN ANTONIO,TX,78253
SUMMER CREEK H S,HOUSTON,TX,77304
FOREST RIDGE,COLLEGE STATION,TX,77845
MILTON B LEE ACADEMY OF SCIENCE & ENGINEERING,SAN ANTONIO,TX,78213
WEINERT EL,SEGUIN,TX,78155
BESSIE COLEMAN MIDDLE,CEDAR HILL,TX,75104
MONTAGUE VILLAGE EL,FORT HOOD,TX,76544
APPLIED LEARNING ACAD,FORT WORTH,TX,76116
FROST EL,FROST,TX,76641
HOLBROOK EL,HOUSTON,TX,77092
UNLIMITED VISIONS AFTERCARE,PASADENA,TX,77503
TEXAS SERENITY ACADEMY,HOUSTON,TX,77037
CAMERON CO J J A E P,MERCEDES,TX,78570
EARLY CHILDHOOD SCHOOL,FRISCO,TX,75035
TOMBALL ALTERNATIVE EDUCATION CENTER,TOMBALL,TX,77375
GEORGE WASHINGTON CARVER EL,KARNACK,TX,75661
HOPE H S,PORT LAVACA,TX,77979
HOMMEL EL,EVERMAN,TX,76140
DUPRE EL,LUBBOCK,TX,79411
WILLBERN EL,HOUSTON,TX,77064
JOHANNA ODONNELL INT,FABENS,TX,79838
MARGARET B HENDERSON EL,DALLAS,TX,75224
YOUNG WOMEN'S LEADERSHIP ACADEMY,SAN ANTONIO,TX,78201
MCCOY EL,CARROLLTON,TX,75006
MISSION J H,MISSION,TX,78572
SKIDMORE-TYNAN EL,SKIDMORE,TX,78389
HUGHES ROAD EL,DICKINSON,TX,77539
DIANE WINBORN EL,KATY,TX,77449
WESTWOOD PRI,PALESTINE,TX,75803
OLSEN PARK EL,AMARILLO,TX,79106
HILDEBRANDT INT,SPRING,TX,77389
CARMICHAEL EL,HOUSTON,TX,77086
TOUGH EL,THE WOODLANDS,TX,77382
STAFFORD CENTER,SAN ANTONIO,TX,78237
ILTEXAS ARLINGTON EL,ARLINGTON,TX,76017
HAMSHIRE-FANNETT EL,BEAUMONT,TX,77705
STOVALL ACADEMY,HOUSTON,TX,77088
CENTRAL MIDDLE,WESLACO,TX,78596
HARRELL BUDD EL,DALLAS,TX,75216
IDEA COLLEGE PREPARATORY SAN BENITO,SAN BENITO,TX,78586
DOROTHY THOMPSON MIDDLE,PROGRESO,TX,78579
DOUGLASS EL,EL PASO,TX,79905
WM B TRAVIS EL,MARSHALL,TX,75672
NEW J H,PEARLAND,TX,77581
FISHER EL,FRISCO,TX,75034
FRED DOUGLASS,JACKSONVILLE,TX,75766
MERIDIAN H S,MERIDIAN,TX,76665
SCHOOL OF SCIENCE AND TECHNOLOGY CORPUS CHRISTI,CORPUS CHRISTI,TX,78413
SILVERCREST EL,PEARLAND,TX,77584
GROESBECK H S,GROESBECK,TX,76642
NISD BEXAR COUNTY JJA,SAN ANTONIO,TX,78238
BRENHAM J H,BRENHAM,TX,77833
IDEA RIVERVIEW COLLEGE PREPARATORY,BROWNSVILLE,TX,78520
COMANCHE EARLY CHILDHOOD CENTER,COMANCHE,TX,76442
THOMAS MANOR,EL PASO,TX,79915
SARTARTIA MIDDLE,SUGAR LAND,TX,77479
BASSETT MIDDLE,EL PASO,TX,79930
HARLANDALE ALTERNATIVE CENTER BOOT MIDDLE,SAN ANTONIO,TX,78214
W A BLAIR EL,DALLAS,TX,75217
CHAPEL HILL H S,MOUNT PLEASANT,TX,75455
PORT O CONNOR EL,PORT O'CONNOR,TX,77982
ATASCOSA COUNTY JUVENILE JUSTICE CENTER,JOURDANTON,TX,78026
ILTEXAS GARLAND EL,GARLAND,TX,75044
HALPIN EARLY CHILDHOOD CTR,HOUSTON,TX,77096
IDEA COLLEGE PREPARATORY PHARR,PHARR,TX,78577
ROARK EL,ARLINGTON,TX,76010
CANNADAY EL,MESQUITE,TX,75150
EAST EL,BRECKENRIDGE,TX,76424
PEASE MIDDLE,SAN ANTONIO,TX,78245
SANCHEZ EL,AUSTIN,TX,78702
HOLLAND H S,HOLLAND,TX,76534
JOHNSON H S,SAN ANTONIO,TX,78259
SABINAL H S,SABINAL,TX,78881
LAMESA DAEP,LAMESA,TX,79331
HARMONY SCHOOL OF SCIENCE-HOUSTON,HOUSTON,TX,77096
JAMES MADISON H S,DALLAS,TX,75215
JOHN IRELAND EL,DALLAS,TX,75217
WILLIE BROWN EL,MANSFIELD,TX,76063
BREWER H S,FORT WORTH,TX,76108
BLATTMAN EL,SAN ANTONIO,TX,78231
MISSION GLEN EL,HOUSTON,TX,77083
ALEDO MIDDLE,ALEDO,TX,76008
LAKE DALLAS H S,CORINTH,TX,76205
PEASE EL,ODESSA,TX,79763
THOMAS J RUSK EL,NACOGDOCHES,TX,75961
CARPENTER EL,DEER PARK,TX,77536
UPLIFT TRIUMPH PREPARATORY SCHOOL,DALLAS,TX,75220
HELEN BALL EL,EL PASO,TX,79936
CAREER EDUCATION CENTER,WICHITA FALLS,TX,76302
FERNDELL HENRY CENTER FOR LEARNING,ROSHARON,TX,77583
PREMONT COLLEGIATE H S,PREMONT,TX,78375
MANOR MIDDLE,MANOR,TX,78653
DE LA VINA ELEM,EDINBURG,TX,78539
HARMONY SCHOOL OF INNOVATION - KATY,KATY,TX,77494
EL DAEP,MISSOURI CITY,TX,77489
CUNNINGHAM EL,HOUSTON,TX,77081
T G TERRY EL,DALLAS,TX,75232
WALNUT BEND EL,HOUSTON,TX,77042
BAY EL,SEABROOK,TX,77568
JUAN N SEGUIN EL,GRAND PRAIRIE,TX,75051
MOCKINGBIRD EL,DALLAS,TX,75206
JJAEP,RICHARDSON,TX,75083
ROSS EL,HOUSTON,TX,77026
NATALIA EARLY CHILD CTR,NATALIA,TX,78059
FRUITVALE MIDDLE,FRUITVALE,TX,75127
GILMER H S,GILMER,TX,75644
HART ISD,HART,TX,79043
RIVER TRAILS EL,FORT WORTH,TX,76118
WILLS POINT J H,WILLS POINT,TX,75169
HARMONY SCHOOL OF INNOVATION - GARLAND,GARLAND,TX,75040
E A JONES EL,MISSOURI CITY,TX,77489
BRUNI H S,BRUNI,TX,78344
O M ROBERTS EL,LAKE JACKSON,TX,77566
EARLY CHILDHOOD CENTER,EAGLE PASS,TX,78852
SHIVE EL,VERNON,TX,76384
BRENHAM MIDDLE,BRENHAM,TX,77833
NATHAN ADAMS EL,DALLAS,TX,75244
GREAT HEARTS MONTE VISTA,SAN ANTONIO,TX,78212
TAFOLLA MIDDLE,SAN ANTONIO,TX,78207
SOCORRO MIDDLE,EL PASO,TX,79927
PETERSON MIDDLE,KERRVILLE,TX,78028
CEDAR VALLEY EL,KILLEEN,TX,76542
MAURINE CAIN MIDDLE,ROCKWALL,TX,75032
TULIA EL,TULIA,TX,79088
SANDS CISD,ACKERLY,TX,79713
WILLIAMSON COUNTY DETENTION CENTER,GEORGETOWN,TX,78626
HODGES BEND MIDDLE,HOUSTON,TX,77083
DELMAS F MORTON EL,GRAND PRAIRIE,TX,75051
EDWIN F WILLIAMS INT,PERRYTON,TX,79070
SOUTHMOST EL,BROWNSVILLE,TX,78521
VEGA H S,VEGA,TX,79092
KIRBY MIDDLE,SAN ANTONIO,TX,78219
WILLS POINT MIDDLE,WILLS POINT,TX,75169
MATHIS EL,MATHIS,TX,78368
ELDORADO EL,ELDORADO,TX,76936
UPLIFT SUMMIT INTERNATIONAL H S,ARLINGTON,TX,76011
PREMIER H S OF PFLUGERVILLE,PFLUGERVILLE,TX,78660
CANYON LAKE H S,FISCHER,TX,78623
MIDLOTHIAN HERITAGE H S,MIDLOTHIAN,TX,76065
BASIS SAN ANTONIO- SHAVANO CAMPUS,SAN ANTONIO,TX,78230
NOBLE REED,CRANDALL,TX,75114
EAST VIEW H S,GEORGETOWN,TX,78626
BRIGHT BEGINNINGS ACADEMIC CENTER,BROWNFIELD,TX,79316
CHARLES MIDDLE,EL PASO,TX,79924
MCCULLOUGH J H,THE WOODLANDS,TX,77381
CHARLES A FORBES MIDDLE,GEORGETOWN,TX,78626
HIDALGO CO J J A E P,MERCEDES,TX,78570
IRENE CLINKSCALE EL,BURLESON,TX,76028
MOULTON EL,MOULTON,TX,77975
CORNERSTONE EL,SUGAR LAND,TX,77479
RIDGEMONT EL,HOUSTON,TX,77053
BUCKHOLTS SCHOOL,BUCKHOLTS,TX,76518
CIMARRON EL,KATY,TX,77494
WINONA EL,WINONA,TX,75792
NORTHSIDE EL,WAXAHACHIE,TX,75165
JEFFERSON ELEM,EDINBURG,TX,78539
THE PRO-VISION ACADEMY,HOUSTON,TX,77051
DUBLIN INT,DUBLIN,TX,76446
YSLETA EL,EL PASO,TX,79907
ROOSEVELT EL,HOUSTON,TX,77022
IDEA NORTH MISSION ACADEMY,MISSION,TX,78574
RICE SCH /LA ESCUELA RICE,HOUSTON,TX,77025
VENABLE VILLAGE EL,FORT HOOD,TX,76544
LUBBOCK CO YOUTH CTR,LUBBOCK,TX,79403
COMFORT EL,COMFORT,TX,78013
TIMPSON SCHOOL,TIMPSON,TX,75975
BEAVER TECHNOLOGY CENTER,GARLAND,TX,75042
KIPP AUSTIN COMUNIDAD,AUSTIN,TX,78754
H GRADY SPRUCE H S,DALLAS,TX,75217
FAIRVIEW SPECIAL PROGRAMS,ROWENA,TX,76875
MICHAEL EL,SAN ANTONIO,TX,78245
CEDAR PARK H S,CEDAR PARK,TX,78613
ORTIZ EL,BROWNSVILLE,TX,78521
GRAPEVINE H S,GRAPEVINE,TX,76051
WUNDERLICH INT,HOUSTON,TX,77066
VINEYARD RANCH EL,SAN ANTONIO,TX,78258
FREDERICKSBURG H S,FREDERICKSBURG,TX,78624
CENTER POINT EL,CENTER POINT,TX,78010
WHITTIER EL,AMARILLO,TX,79107
FRAZIER EL,BURLESON,TX,76028
SER-NINOS CHARTER EL,HOUSTON,TX,77081
PASODALE EL,EL PASO,TX,79907
BENDWOOD SCHOOL,HOUSTON,TX,77024
VELMA PENNY EL,LINDALE,TX,75771
HAMSHIRE-FANNETT MIDDLE,BEAUMONT,TX,77705
WILLOW BEND EL,LUBBOCK,TX,79416
ROUND TOP-CARMINE H S,CARMINE,TX,78932
MESA VISTA EL,EL PASO,TX,79907
PECAN GROVE EL,RICHMOND,TX,77406
LAKE HIGHLANDS EL,DALLAS,TX,75238
FREDERICKSBURG MIDDLE,FREDERICKSBURG,TX,78624
LASARA H S,LASARA,TX,78561
CROCKETT MIDDLE,PECOS,TX,79772
PRADA EL,LAREDO,TX,78046
HODGE EL,DENTON,TX,76208
MCKINNEY H S,MCKINNEY,TX,75069
DENTON CO J J A E P,JUSTIN,TX,76247
FORSAN H S,FORSAN,TX,79733
DECKER MIDDLE,AUSTIN,TX,78724
THOMAS TOLBERT EL,DALLAS,TX,75233
MEADOR ELEMENTARY,HOUSTON,TX,77089
NEW WAVERLY H S,NEW WAVERLY,TX,77358
WOODROW WILSON DAEP,TEXAS CITY,TX,77590
CHAPEL HILL H S,TYLER,TX,75707
CARROLL H S,CORPUS CHRISTI,TX,78411
WOODVILLE H S,WOODVILLE,TX,75979
BULLOCK EL,GARLAND,TX,75042
WAXAHACHIE H S OF CHOICE,WAXAHACHIE,TX,75165
NORTHWEST EL,BROWNWOOD,TX,76801
BLEDSOE EL,FRISCO,TX,75034
VISTA ACADEMY OF CROCKETT,CROCKETT,TX,75835
BRIARGATE EL,MISSOURI CITY,TX,77489
HILLCREST H S,DALLAS,TX,75230
WALLACE ACCELERATED H S,COLORADO CITY,TX,79512
LAKE TRAVIS H S,AUSTIN,TX,78738
GEORGE I SANCHEZ NORTH,HOUSTON,TX,77076
ILTEXAS KELLER SAGINAW H S,FORT WORTH,TX,76131
NEW 6TH H S - PEARSON RANCH,ROUND ROCK,TX,78681
RONALD THORNTON MIDDLE,MISSOURI CITY,TX,77459
ELKHART H S,ELKHART,TX,75839
PONDEROSA EL,HOUSTON,TX,77090
BELLEVUE SCHOOL,BELLEVUE,TX,76228
CENTERVILLE EL,CENTERVILLE,TX,75833
LAWRENCE E ELKINS H S,MISSOURI CITY,TX,77459
JOHN J CIAVARRA EL,DEVINE,TX,78016
BROWNSVILLE ACADEMIC CENTER,BROWNSVILLE,TX,78526
GEORGE HERBERT WALKER BUSH EL,ADDISON,TX,75001
EXCEL ACADEMY EDUCATION TRANSITION CENTER,HOUSTON,TX,77081
FOLKS MIDDLE,SAN ANTONIO,TX,78254
PATSY SOMMER EL,AUSTIN,TX,78717
BOB AND LOLA SANFORD EL,VAN ALSTYNE,TX,75495
HIDALGO EARLY START ACADEMY,HIDALGO,TX,78557
VERNON SCHRADE MIDDLE,ROWLETT,TX,75089
DR ALEJO SALINAS JR EL,HIDALGO,TX,78557
CANO-GONZALEZ EL,EDINBURG,TX,78539
BRUCE EL,HOUSTON,TX,77020
HEIGHTS EL,LAREDO,TX,78040
FIELDS EL,MCALLEN,TX,78501
BATESVILLE SCHOOL,BATESVILLE,TX,78829
NEW CANEY H S,NEW CANEY,TX,77357
HIDALGO COUNTY BOOT CAMP,WESLACO,TX,78596
SMITHVILLE EL,SMITHVILLE,TX,78957
RAYE-ALLEN EL,TEMPLE,TX,76502
SABINE EL,KILGORE,TX,75662
NORTH SHORE MIDDLE,HOUSTON,TX,77015
BOWIE EL,ABILENE,TX,79602
NACOGDOCHES COUNTY DAEP COOP,GARRISON,TX,75946
WEST MESQUITE H S,MESQUITE,TX,75149
GOLIAD EL,ODESSA,TX,79762
WHITEHOUSE ISD - JJAEP,WHITEHOUSE,TX,75791
IGNACIO ZARAGOZA EL,DALLAS,TX,75246
PATRICIA KNOWLES EL,CEDAR PARK,TX,78613
ELITE STEM PRI ACADEMY,HOUSTON,TX,77017
SANFORD-FRITCH EL,FRITCH,TX,79036
EVERMAN H S,EVERMAN,TX,76140
BORGER MIDDLE,BORGER,TX,79007
SHEPTON H S,PLANO,TX,75093
NORTH DALLAS H S,DALLAS,TX,75204
WOODSTONE EL,SAN ANTONIO,TX,78233
HALTOM MIDDLE,HALTOM CITY,TX,76117
JOHN DOEDYNS EL,SAN JUAN,TX,78589
KINGSBOROUGH MIDDLE,SAN ANTONIO,TX,78221
BURGES H S,EL PASO,TX,79925
EDCOUCH-ELSA H S,ELSA,TX,78543
GRAHAM EL,GRAHAM,TX,76450
RICARDO ESTRADA MIDDLE,EL PASO,TX,79928
MITCHELL INT,THE WOODLANDS,TX,77382
WILLIAMSON COUNTY CORE/JJAEP,GEORGETOWN,TX,78626
URSULA STEPHENS EL,KATY,TX,77494
BRUCEVILLE-EDDY H S,EDDY,TX,76524
ALTERNATIVE MIDDLE,SAN ANTONIO,TX,78230
COOPER H S,COOPER,TX,75432
FORT HANCOCK H S,FORT HANCOCK,TX,79839
LEE BUICE EL,ODESSA,TX,79765
VISTA ACADEMY OF EDINBURG,EDINBURG,TX,78539
BARBARA M MANNS MIDDLE DAEP,DALLAS,TX,75224
HECTOR P GARCIA EL,GRAND PRAIRIE,TX,75050
FORT WORTH ACADEMY OF FINE ARTS EL,FORT WORTH,TX,76109
FREER H S,FREER,TX,78357
BEASLEY EL,MESQUITE,TX,75150
DONALD J STOCKTON JH,CONROE,TX,77301
ISCHOOL HIGH AT THE WOODLANDS,CONROE,TX,77384
EVADALE DAEP,EVADALE,TX,77615
WILDORADO SCHOOL,WILDORADO,TX,79098
BAILEY MIDDLE,AUSTIN,TX,78739
JOSLIN EL,AUSTIN,TX,78745
BOWIE PRI,SULPHUR SPRINGS,TX,75482
MONTCLAIR EL,CORPUS CHRISTI,TX,78412
NIMITZ H S,HOUSTON,TX,77073
AUSTWELL-TIVOLI H S,TIVOLI,TX,77990
COOKE/FANNIN/GRAYSON CO JUVENILE POST AJUD FAC,DENISON,TX,75020
SWEENY J H,SWEENY,TX,77480
SAMUEL CLEMENS H S,SCHERTZ,TX,78154
INDEPENDENCE H S,FRISCO,TX,75035
ISAACS EARLY CHILDHOOD SCHOOL,PLANO,TX,75074
TULOSO-MIDWAY ACADEMIC CAREER CENTER,CORPUS CHRISTI,TX,78409
PARSONS EL,LUBBOCK,TX,79413
SLATON MIDDLE,LUBBOCK,TX,79411
THORNDALE MIDDLE,THORNDALE,TX,76577
ZAVALA EL,EL PASO,TX,79905
ROWLAND EL,VICTORIA,TX,77901
FAIRVIEW SPECIAL PROGRAMS,SAN ANGELO,TX,76904
HILLCREST PDS MAGNET,WACO,TX,76710
CLINT H S,CLINT,TX,79836
BLANKET SCHOOL,BLANKET,TX,76432
CAMELOT EL,SAN ANTONIO,TX,78218
PIN OAK MIDDLE,BELLAIRE,TX,77401
ALBA-GOLDEN H S,ALBA,TX,75410
ALICE JOHNSON J H,CHANNELVIEW,TX,77530
SIEBERT EL,EASTLAND,TX,76448
RED EL,HOUSTON,TX,77035
HUNTINGTON EL,HUNTINGTON,TX,75949
YWLA AT BILL ARNOLD,GRAND PRAIRIE,TX,75051
WALKER EL,KATY,TX,77449
CARROLL EL,FRISCO,TX,75034
SPEARS EL,FRISCO,TX,75034
DIAZ J H,HIDALGO,TX,78557
LIBERTY EL,EAGLE PASS,TX,78852
WELDER EL,SINTON,TX,78387
SCHOCHLER EL,CHANNELVIEW,TX,77530
WHITEWRIGHT H S,WHITEWRIGHT,TX,75491
CHALLENGE ACADEMY,WACO,TX,76704
DAVID CROCKETT ACADEMY,SAN ANTONIO,TX,78207
I T HOLLEMAN EL,WALLER,TX,77484
ROSEHILL EL,TOMBALL,TX,77377
FAULK MIDDLE,BROWNSVILLE,TX,78521
GRAFORD SCHOOL,GRAFORD,TX,76449
ASPERMONT EL,ASPERMONT,TX,79502
WHITTIER EL,HOUSTON,TX,77029
THERON JONES EARLY LITERACY CENTER,TEXARKANA,TX,75501
MCRAE EL,FORT WORTH,TX,76105
LEONARD MIDDLE,FORT WORTH,TX,76116
W A MARTIN EL,CRANDALL,TX,75114
PORT ARTHUR ALTERNATIVE CENTER,PORT ARTHUR,TX,77640
UPLIFT WILLIAMS PREPARATORY MIDDLE,DALLAS,TX,75235
GEORGETOWN BEHAVIORAL HEALTH INSTITUTE,GEORGETOWN,TX,78626
CEDARS ACADEMY NEXT GENERATION H S AT HIGHLAND,AUSTIN,TX,78752
JORDAN MIDDLE,SAN ANTONIO,TX,78251
LEWIS EL,HOUSTON,TX,77061
WILD PEACH EL,BRAZORIA,TX,77422
WEISS H S,PFLUGERVILLE,TX,78660
ILTEXAS KATY WESTPARK H S,RICHMOND,TX,77407
STARTZVILLE EL,CANYON LAKE,TX,78133
BINGMAN PK,BEAUMONT,TX,77705
SKIPCHA EL,HARKER HEIGHTS,TX,76548
DOWELL MIDDLE,MCKINNEY,TX,75070
CIBOLO CREEK EL,BOERNE,TX,78006
ROY CISNEROS EL,SAN ANTONIO,TX,78237
TAYLOR EL,PLANO,TX,75025
GRAND SALINE H S,GRAND SALINE,TX,75140
WILLS EL,AMARILLO,TX,79106
DR TERRY ROBBINS MIDDLE,LUFKIN,TX,75904
LONDON MIDDLE,CORPUS CHRISTI,TX,78415
STEWART EL,MONTGOMERY,TX,77316
ROUGHRIDER ACADEMY,CENTER,TX,75935
BLUE RIDGE H S,BLUE RIDGE,TX,75424
BREMOND H S,BREMOND,TX,76629
RALPH EICKENROHT EL,HOUSTON,TX,77090
ZAPATA H S,ZAPATA,TX,78076
W M PEARCE PRI,SAN ANTONIO,TX,78221
EMERY EL,KATY,TX,77449
TRENTON EL,TRENTON,TX,75490
SEMINOLE PRI,SEMINOLE,TX,79360
BARBERS HILL MIDDLE SOUTH,MONT BELVIEU,TX,77580
HIGHPOINT SCHOOL EAST (DAEP),HOUSTON,TX,77049
WODEN EL,WODEN,TX,75978
MCLEOD EL,MCLEOD,TX,75565
FLOWER MOUND H S,FLOWER MOUND,TX,75022
LAURA INGALLS WILDER INT,SCHERTZ,TX,78154
LAWSON MIDDLE,HOUSTON,TX,77045
LIVELY MIDDLE,AUSTIN,TX,78704
SUNDOWN EL,KATY,TX,77449
HORIZON MONTESSORI II,WESLACO,TX,78596
ERA SCHOOL,ERA,TX,76238
STANTON EL,EL PASO,TX,79924
WILLIAM VELASQUEZ,RICHMOND,TX,77469
STANTON EL,STANTON,TX,79782
NORTHEAST EARLY COLLEGE H S,AUSTIN,TX,78752
STEPHEN F AUSTIN ENVIRONMENTAL SCIENCE ACADEMY,GRAND PRAIRIE,TX,75050
ELSIK H S,HOUSTON,TX,77072
MARGARET FISCHER DAVIS EL,TEXARKANA,TX,75503
BROCK J H,BROCK,TX,76087
HIGHLAND PARK EL,AUSTIN,TX,78731
ALPHA,MAGNOLIA,TX,77355
WEST TEXAS EL,STINNETT,TX,79083
G W CARVER 6TH GRADE STEM LEARNING CENTER,LANCASTER,TX,75146
RED ROCK EL,RED ROCK,TX,78662
THE NBISD LEARNING CENTER,NEW BRAUNFELS,TX,78130
HARMONY SCHOOL OF FINE ARTS AND TECHNOLOGY-HOUSTON,HOUSTON,TX,77054
PRAIRIE VIEW EL,RHOME,TX,76078
J L LYON EL,MAGNOLIA,TX,77355
HARMONY SCIENCE ACADEMY - GRAND PRAIRIE,GRAND PRAIRIE,TX,75050
THOMAS EL,PLANO,TX,75023
NAVARRO EL,LOCKHART,TX,78644
OLIVERO GARZA SR EL,MCALLEN,TX,78504
L B JOHNSON EL,ODESSA,TX,79762
MAUDE MAE KIRCHNER EL,QUEMADO,TX,78877
LINDEN EL,LINDEN,TX,75563
LINDA HERRINGTON EL,ROUND ROCK,TX,78665
NACOGDOCHES H S,NACOGDOCHES,TX,75965
INFINITY EARLY COLLEGE H S,PORTER,TX,77365
LA JOYA PALMVIEW H S,MISSION,TX,78572
ADULT/COMMUNITY LRN CTR,EL PASO,TX,79907
ADVANCED LEARNING ACADEMY,SAN ANTONIO,TX,78212
JUDITH A RESNIK MIDDLE,VON ORMY,TX,78073
ILTEXAS EAST FORT WORTH MIDDLE,FORT WORTH,TX,76112
WILLIAMSON CO JUVENILE DETENTION CENTER,GEORGETOWN,TX,78626
PSJA SOUTHWEST EARLY COLLEGE H S,PHARR,TX,78577
RUBEN C RODRIGUEZ EL,EDCOUCH,TX,78538
BULLARD EL,BULLARD,TX,75757
E MERLE SMITH MIDDLE,SINTON,TX,78387
JACKSBORO H S,JACKSBORO,TX,76458
TRAVIS EARLY COLLEGE H S,AUSTIN,TX,78704
JACKSONVILLE MIDDLE,JACKSONVILLE,TX,75766
CRYAR INTERMEDIATE,CONROE,TX,77304
CENTRAL MIDDLE,NEDERLAND,TX,77627
DRAW ACADEMY,HOUSTON,TX,77063
GRAPEVINE MIDDLE,GRAPEVINE,TX,76051
S GUS ALEXANDER JR EL,DUNCANVILLE,TX,75137
HENDERSON EL,SAN ANTONIO,TX,78254
LIVE OAK EL,AUSTIN,TX,78729
DAGGETT EL,FORT WORTH,TX,76110
KEY MIDDLE,HOUSTON,TX,77026
SMYER SCHOOLS,SMYER,TX,79367
ORANGE GROVE EL,ORANGE GROVE,TX,78372
RANN EL,DECATUR,TX,76234
NEW LAKELINE AREA EL,ROUND ROCK,TX,78681
PARKS EL,PASADENA,TX,77503
LILLION E LUEHRS J H,BISHOP,TX,78343
SLOCUM H S,ELKHART,TX,75839
STROMAN MIDDLE,VICTORIA,TX,77901
WAKE VILLAGE EL,WAKE VILLAGE,TX,75501
V M ADAMS EL,SAN ANTONIO,TX,78214
CENTENNIAL H S,FRISCO,TX,75035
SUE EVELYN RATTAN EL,ANNA,TX,75409
NEBBIE WILLIAMS EL,ROCKWALL,TX,75087
PLAINS EL,PLAINS,TX,79355
PSJA NORTH EARLY COLLEGE H S,PHARR,TX,78577
STAFFORD ADJUSTMENT CENTER,STAFFORD,TX,77477
ESCANDON EL,EDINBURG,TX,78539
B L GARZA MIDDLE,EDINBURG,TX,78539
PRO-VISION MIDDLE,HOUSTON,TX,77051
BURKE EL,SAN ANTONIO,TX,78250
T W OGG EL,CLUTE,TX,77531
GRAPELAND J H,GRAPELAND,TX,75844
JUDGE BAREFOOT SANDERS LAW MAGNET,DALLAS,TX,75203
CLYDE J H,CLYDE,TX,79510
CROCKETT EL,HOUSTON,TX,77007
KIRBYVILLE H S,KIRBYVILLE,TX,75956
HIRSCHI H S,WICHITA FALLS,TX,76305
WILSON EL,HOUSTON,TX,77084
TOLER EL,GARLAND,TX,75043
BEAR BRANCH J H,MAGNOLIA,TX,77354
BENAVIDES EL,BROWNSVILLE,TX,78520
PINKERTON EL,COPPELL,TX,75019
GRADY SCHOOL,LENORAH,TX,79749
DUMAS H S,DUMAS,TX,79029
AMARILLO H S,AMARILLO,TX,79109
HENDRICKSON H S,PFLUGERVILLE,TX,78660
ACADEMY OF DALLAS,DALLAS,TX,75224
IUNIVERSITY PREP,GRAPEVINE,TX,76051
TATUM EL,TATUM,TX,75691
WILSON EL,LUBBOCK,TX,79410
ALPINE EL,ALPINE,TX,79830
HAUDE EL,SPRING,TX,77388
BRENHAM EL,BRENHAM,TX,77833
TRINITY CHARTER SCHOOL - BRENHAM CAMPUS,BRENHAM,TX,77833
DISCIPLINARY ALTERNATIVE EDUCATION PROGRAM,CLEVELAND,TX,77327
HOMEBOUND,AMARILLO,TX,79106
TIMBER RIDGE EL,KILLEEN,TX,76542
SCARBOROUGH EL,SAN ANTONIO,TX,78238
BASIS SAN ANTONIO- SHAVANO CAMPUS,SAN ANTONIO,TX,78230
SYCAMORE SPRINGS EL,AUSTIN,TX,78737
TEXAS CONNECTIONS ACADEMY AT HOUSTON,HOUSTON,TX,77042
HOLLAND MIDDLE,HOUSTON,TX,77029
NEW SUMMERFIELD SCHOOL,NEW SUMMERFIELD,TX,75780
WOODS EL,TYLER,TX,75701
NICHOLS SAWMILL EL,MAGNOLIA,TX,77355
BUNA EL,BUNA,TX,77612
MEDIO CREEK EL,SAN ANTONIO,TX,78252
KILLEEN JJAEP,KILLEEN,TX,76543
GENESIS H S,BASTROP,TX,78602
SNEED EL,HOUSTON,TX,77042
NORMANGEE H S,NORMANGEE,TX,77871
KLEIN OAK H S,SPRING,TX,77389
ANGLETON H S,ANGLETON,TX,77515
HOUSTON HEIGHTS CHARTER SCHOOL,HOUSTON,TX,77008
CROSBY KINDERGARTEN CENTER,CROSBY,TX,77532
LAURELES EL,SAN BENITO,TX,78586
SPRING BRANCH ED CTR,HOUSTON,TX,77055
UNIVERSITY H S,AUSTIN,TX,78705
PARKVIEW SCHOOL - LEVELLAND,LEVELLAND,TX,79336
WOODARD EL,CYPRESS,TX,77433
KUEHNLE EL,KLEIN,TX,77379
BLALACK MIDDLE,CARROLLTON,TX,75007
SLACK EL,LUFKIN,TX,75901
RUSK EL,MIDLAND,TX,79707
COLMESNEIL JH/HS,COLMESNEIL,TX,75938
ALBA-GOLDEN EL,ALBA,TX,75410
PARK VIEW INT,PASADENA,TX,77502
NICHOLS EL,FRISCO,TX,75034
BONHAM EL,HARLINGEN,TX,78550
TRAVIS EL,BAYTOWN,TX,77520
KLEIN H S,KLEIN,TX,77379
FRANCIS EL,HUMBLE,TX,77396
BOLES H S,QUINLAN,TX,75474
BOERNE - SAMUEL V CHAMPION H S,BOERNE,TX,78006
PITTSBURG EL,PITTSBURG,TX,75686
NORTHLAKE EL,GARLAND,TX,75040
EDGEMERE INTERNATIONAL SCHOOL,EL PASO,TX,79925
CATHELENE THOMAS EL,SLATON,TX,79364
HEDLEY SCHOOL,HEDLEY,TX,79237
KENNEDY EL,CORPUS CHRISTI,TX,78416
HOUSTON EL,MCALLEN,TX,78503
MONTCLAIR EL,GARLAND,TX,75043
MARTHA HUNT EL,MURPHY,TX,75094
WHARTON H S,WHARTON,TX,77488
TROY J J A E P,KILLEEN,TX,76543
MADISON H S,SAN ANTONIO,TX,78247
PERKINS MIDDLE,BROWNSVILLE,TX,78521
J J A E P,MCALLEN,TX,78503
CAMERON CO J J A E P,SAN BENITO,TX,78586
CARLOS TRUAN J H,ELSA,TX,78543
PATHWAYS ACADEMIC CAMPUS,KILLEEN,TX,76542
NEW EL,DALLAS,TX,75252
UPLIFT GRAND H S,GRAND PRAIRIE,TX,75050
BOYS RANCH H S,BOYS RANCH,TX,79010
SYCAMORE EL,FORT WORTH,TX,76134
WILSON MIDDLE,NEDERLAND,TX,77627
KIMMIE M BROWN EL,DAYTON,TX,77535
DUMAS INT,DUMAS,TX,79029
PILOT POINT EL,PILOT POINT,TX,76258
HOPE ACADEMY,LA JOYA,TX,78560
RISE ACADEMY,LUBBOCK,TX,79403
EVANT H S,EVANT,TX,76525
BURNET EL,ODESSA,TX,79762
QUEST CAMPUS PRE-K THRU 8,DALLAS,TX,75237
DEVINE H S,DEVINE,TX,78016
EASTLAND CARE CAMPUS,EASTLAND,TX,76448
T PRICE EL,DONNA,TX,78537
MILLSAP MIDDLE,MILLSAP,TX,76066
ODOM EL,HOUSTON,TX,77060
CHARLES ACTON EL,DALLAS,TX,75249
SPICEWOOD PARK EL,SAN ANTONIO,TX,78224
GALENA PARK H S,GALENA PARK,TX,77547
SAM RAYBURN EL,IVANHOE,TX,75447
KRUEGER MIDDLE,SAN ANTONIO,TX,78218
LEON EL,JEWETT,TX,75846
SCOTT EL,TEMPLE,TX,76504
XENIA VOIGT EL,ROUND ROCK,TX,78664
MARSHALL H S,MARSHALL,TX,75670
SWEENY EL,SWEENY,TX,77480
NORTHWEST H S,JUSTIN,TX,76247
PETE GALLEGO EL,EAGLE PASS,TX,78852
EARLY MIDDLE,EARLY,TX,76802
WISDOM H S,HOUSTON,TX,77057
GEORGE E KELLY EL,SAN ANTONIO,TX,78226
SPRINGRIDGE EL,RICHARDSON,TX,75081
HAYNES EL,KILLEEN,TX,76549
SOLOMON P ORTIZ INT,ROBSTOWN,TX,78380
HOWE H S,HOWE,TX,75459
MARY LOU HARTMAN,SAN ANTONIO,TX,78218
PATTON EL,AUSTIN,TX,78749
GEORGE WEST EL,GEORGE WEST,TX,78022
LYLES MIDDLE,GARLAND,TX,75043
MCCALL EL,PLANO,TX,75074
BROWNFIELD H S,BROWNFIELD,TX,79316
STEPHENS EL,SHADY SHORES,TX,76208
M RIVAS EL,DONNA,TX,78537
CROCKETT ECHS,AUSTIN,TX,78745
BOWIE INT,BOWIE,TX,76230
NOLA KATHRYN WILSON EL,CRANDALL,TX,75114
HAMLET EL,AMARILLO,TX,79107
SAMUEL BECK EL,TROPHY CLUB,TX,76262
SAVOY EL,SAVOY,TX,75479
VETERANS MEMORIAL EL,LAREDO,TX,78046
WILLIAM C HERRERA EL,EL PASO,TX,79932
MERIDIANA EL,IOWA COLONY,TX,77583
VANGUARD BEETHOVEN,EDINBURG,TX,78539
ALIEF LEARNING CTR (K-6),HOUSTON,TX,77072
CAMERON COUNTY JJAEP,SAN BENITO,TX,78586
HERITAGE MIDDLE,COLLEYVILLE,TX,76034
SKAGGS EL,PLANO,TX,75025
DALHART H S,DALHART,TX,79022
LAKEVIEW MIDDLE,THE COLONY,TX,75056
WALNUT SPRINGS SCHOOL,WALNUT SPRINGS,TX,76690
LEVERETTS CHAPEL H S,OVERTON,TX,75684
JAMES TIPPIT MIDDLE,GEORGETOWN,TX,78628
KLEBERG EL,DALLAS,TX,75253
DIXIE EL,TYLER,TX,75704
SIDNEY H POYNTER,FORT WORTH,TX,76140
WILSON CO J J A E P,FLORESVILLE,TX,78114
ALICE D CONTRERAS,FORT WORTH,TX,76115
GRAHAM H S,GRAHAM,TX,76450
NORTHSIDE EL,HENDERSON,TX,75652
FRANCIS R SCOBEE MIDDLE,SAN ANTONIO,TX,78245
BEST EL,HOUSTON,TX,77036
SPEC RAFAEL HERNANDO MIDDLE,EL PASO,TX,79938
LIVE OAK LEARNING CENTER,ROCKPORT,TX,78382
SOUTH BELTON MIDDLE,BELTON,TX,76513
OFF CAMPUS DAEP,IDALOU,TX,79329
VERIBEST SPECIAL PROGRAMS,ROWENA,TX,76875
WALTER & LOIS CURTIS MIDDLE,ALLEN,TX,75002
STINSON MIDDLE,SAN ANTONIO,TX,78249
QUAIL VALLEY EL,MISSOURI CITY,TX,77459
SHAMROCK MIDDLE,SHAMROCK,TX,79079
COPPERAS COVE H S,COPPERAS COVE,TX,76522
FOUNDERS CLASSICAL ACADEMY OF LEANDER,LEANDER,TX,78641
COOPER H S,COOPER,TX,75432
LUCIO MIDDLE,BROWNSVILLE,TX,78521
WILLIAM D SLIDER MIDDLE,EL PASO,TX,79936
CATHEY MIDDLE,MCALLEN,TX,78501
FAIRVIEW ACCELERATED,SAN ANGELO,TX,76904
LANGFORD EL,AUSTIN,TX,78744
UPLIFT GRADUS PREPARATORY,DESOTO,TX,75115
H C CARLESTON EL,PEARLAND,TX,77584
GROVES EL,HUMBLE,TX,77346
TIMBER CREEK EL,THE WOODLANDS,TX,77389
DRC CAMPUS,DALLAS,TX,75212
ALIEF LEARNING CTR (6-12),HOUSTON,TX,77072
UPLIFT PEAK PREPARATORY MIDDLE,DALLAS,TX,75204
SALADO H S,SALADO,TX,76571
LA MARQUE H S,LA MARQUE,TX,77568
RUSK H S,RUSK,TX,75785
LIBERTY H S,HOUSTON,TX,77036
PALESTINE J H,PALESTINE,TX,75801
RIDGETOP EL,AUSTIN,TX,78751
GREENWOOD EL,MIDLAND,TX,79706
WODEN H S,WODEN,TX,75978
JACK C BINION EL,RICHLAND HILLS,TX,76118
SAN JACINTO EL,SAN ANGELO,TX,76903
HARRIS EL,AUSTIN,TX,78723
PEARCE H S,RICHARDSON,TX,75080
BROOKESMITH SCHOOL,BROOKESMITH,TX,76827
JAMES E MITCHELL EL,GEORGETOWN,TX,78626
DONNA LEWIS EL,HOUSTON,TX,77067
LA FERIA H S,LA FERIA,TX,78559
LYNN LUCAS MIDDLE,WILLIS,TX,77378
OUIDA SPRINGER,ROCKWALL,TX,75032
AXTELL BRUCEVILLE-EDDY LEARNING CENTER,AXTELL,TX,76624
KEYS ACAD,HARLINGEN,TX,78550
WINTERS EL,WINTERS,TX,79567
CREEK VALLEY MIDDLE,CARROLLTON,TX,75010
GRACE E HARDEMAN EL,WATAUGA,TX,76148
WEBB M S,AUSTIN,TX,78752
HAZEL S PATTISON EL,KATY,TX,77450
PEASE COMMUNICATIONS/TECHNOLOGY ACADEMY,MIDLAND,TX,79705
FRANKLIN D ROOSEVELT EL,LAREDO,TX,78046
ABERNATHY DAEP,PLAINVIEW,TX,79072
ANTHONY MIDDLE,CYRESS,TX,77433
BURBANK H S,SAN ANTONIO,TX,78204
MORNINGSIDE EL,BROWNSVILLE,TX,78521
UNIVERSITY H S,WACO,TX,76706
DETENT CTR,FORT WORTH,TX,76107
AUSTIN MIDDLE,AMARILLO,TX,79109
CLARK EL,BAYTOWN,TX,77521
LOWELL SMITH JR MIDDLE,CLEBURNE,TX,76033
DUNCAN EL,FORT HOOD,TX,76544
WEST MIDDLE,WEST,TX,76691
JUNCTION MIDDLE,JUNCTION,TX,76849
GARCIA MIDDLE,BROWNSVILLE,TX,78521
RED SANDS EL,EL PASO,TX,79938
CARSON EL,SAN ANTONIO,TX,78250
HARMONY SCIENCE ACADEMY - ODESSA,ODESSA,TX,79762
HARMONY SCIENCE ACADEMY - EULESS,EULESS,TX,76040
PFLUGERVILLE H S,PFLUGERVILLE,TX,78660
MAYES EL,DENISON,TX,75020
MANSFIELD SUMMIT H S,ARLINGTON,TX,76001
REG DAY SCHOOL FOR DEAF,ODESSA,TX,79763
SPRINGTOWN H S,SPRINGTOWN,TX,76082
GARCIA YMLA,AUSTIN,TX,78724
EAST CENTRAL HERITAGE MIDDLE,SAN ANTONIO,TX,78263
CAMPBELL EL,CAMPBELL,TX,75422
NORTH CROWLEY H S,FORT WORTH,TX,76123
MILANO J H,MILANO,TX,76556
KASHMERE H S,HOUSTON,TX,77028
SHADY GROVE EL,BURNET,TX,78611
DE ZAVALA EL,HOUSTON,TX,77012
HARTMAN MIDDLE,HOUSTON,TX,77087
CHARLES BAXTER J H,EVERMAN,TX,76140
ELMER C WATSON H S,FORT WORTH,TX,76179
REECES CREEK EL,KILLEEN,TX,76542
MARK TWAIN EL,ALVIN,TX,77511
HIDALGO J J A E P,HIDALGO,TX,78557
HALTOM H S,HALTOM CITY,TX,76137
PHOENIX ACADEMY,AUSTIN,TX,78704
PREMIER H S OF NORTH HOUSTON,HOUSTON,TX,77014
HARMONY SCHOOL OF ENRICHMENT - HOUSTON,HOUSTON,TX,77099
CHAVEZ EXCEL ACADEMY,SAN ANTONIO,TX,78230
WALNUT GROVE MIDDLE,MIDLOTHIAN,TX,76065
WHITESBORO H S,WHITESBORO,TX,76273
BEXAR CO J J A E P,SAN ANTONIO,TX,78214
DAEP,PROGRESO,TX,78579
SANDRA MOSSMAN EL,LEAGUE CITY,TX,77573
CREEKSIDE PARK J H,THE WOODLANDS,TX,77375
ANNUNCIATION MATERNITY HOME,GEORGETOWN,TX,78628
LA VERNIA PRI,LA VERNIA,TX,78121
PERCY W NEBLETT EL,SHERMAN,TX,75090
NORMANGEE EL,NORMANGEE,TX,77871
HENRY B GONZALEZ EL,EAGLE PASS,TX,78852
FROST EL,HOUSTON,TX,77048
SALINAS EL,MISSION,TX,78573
HIGH COUNTRY EL,FORT WORTH,TX,76131
WORTHAM OAKS EL,SAN ANTONIO,TX,78261
POWELL EL,THE WOODLANDS,TX,77381
WILLIAM HAWLEY ATWELL LAW ACADEMY,DALLAS,TX,75232
NARCISO CAVAZOS,MISSION,TX,78572
CUNNINGHAM MIDDLE,HOUSTON,TX,77049
GARZA INDEPENDENCE H S,AUSTIN,TX,78702
CARVER ALTER LRN CTR,SAN ANGELO,TX,76903
KRUM H S,KRUM,TX,76249
VISTA ACADEMY OF HUMBLE,HUMBLE,TX,77338
CHAMBERLIN EL,STEPHENVILLE,TX,76401
BARBARA COCKRELL EL,PEARLAND,TX,77581
DENTON CO J J A E P,DENTON,TX,76205
ARMSTRONG EL,CONROE,TX,77301
R F PATTERSON EL,ARLINGTON,TX,76001
JOAQUIN H S,JOAQUIN,TX,75954
DISTRICT REASSIGNMENT & OPPORTUNITY CENTER,CHARLOTTE,TX,78011
LAW EL,HOUSTON,TX,77047
FEHL-PRICE EL,BEAUMONT,TX,77701
JEFFERSON EL,HOUSTON,TX,77009
AIKMAN EL,HEREFORD,TX,79045
IDEA MONTOPOLIS ACADEMY,AUSTIN,TX,78741
HEIGHTS H S,HOUSTON,TX,77008
WASHINGTON J H,CONROE,TX,77301
NUECES CO J J A E P,CORPUS CHRISTI,TX,78415
BOUDE STOREY MIDDLE,DALLAS,TX,75216
LYFORD MIDDLE,LYFORD,TX,78569
BARBERS HILL EL SOUTH,MONT BELVIEU,TX,77580
H R MOYE EL,EL PASO,TX,79904
VERNON MIDDLE,HARLINGEN,TX,78550
CLAYTON EL,AUSTIN,TX,78739
C W CLINE EL,FRIENDSWOOD,TX,77546
FREIHEIT EL,NEW BRAUNFELS,TX,78130
CENTRAL H S,KELLER,TX,76244
NIMITZ EL,KERRVILLE,TX,78028
TURNER H S,CARROLLTON,TX,75006
WEST EL,DAINGERFIELD,TX,75638
NORTHSIDE H S,HOUSTON,TX,77009
CARRIZO SPRINGS INT,CARRIZO SPRINGS,TX,78834
IUNIVERSITY PREP,GRAPEVINE,TX,76051
CENTRAL J H,POLLOK,TX,75969
H S POINT,DEER PARK,TX,77536
GREENWAYS INT,AMARILLO,TX,79119
TIMBERWILDE EL,SAN ANTONIO,TX,78250
HEMPSTEAD EL,HEMPSTEAD,TX,77445
DULLES MIDDLE,SUGAR LAND,TX,77478
GOLFCREST EL,HOUSTON,TX,77087
JONES EL,CORPUS CHRISTI,TX,78413
HIGHPOINT,HOUSTON,TX,77022
JENNIE REID EL,LA PORTE,TX,77571
BENJAMIN SCHOOL,BENJAMIN,TX,79505
ZUNDELOWITZ EL,WICHITA FALLS,TX,76309
WICHITA FALLS H S,WICHITA FALLS,TX,76309
JACKSON EL,TYLER,TX,75705
BENAVIDES EL,SAN YGNACIO,TX,78067
DALLAS COUNTY JJAEP DESOTO CAMPUS,DALLAS,TX,75212
MARION ALTERNATIVE CENTER,SMILEY,TX,78159
RRISD EARLY COLLEGE H S,ROUND ROCK,TX,78665
IDEA TRES LAGOS ACADEMY,MCALLEN,TX,78504
SOUTH EL,BRECKENRIDGE,TX,76424
MIDLAND H S,MIDLAND,TX,79701
JC KELLY EL,PHARR,TX,78577
WEIMAR J H,WEIMAR,TX,78962
MILLER INT,PASADENA,TX,77504
PILGRIM ACADEMY,HOUSTON,TX,77057
NUECES CANYON JH/HS,BARKSDALE,TX,78828
FLETCHER EL,BEAUMONT,TX,77701
ROBERT G COLE MIDDLE/HIGH SCHOOL,SAN ANTONIO,TX,78234
HOBBY MIDDLE,SAN ANTONIO,TX,78230
FENLEY TRANSITIONAL H S,SAN ANTONIO,TX,78214
WESTLAKE ACADEMY,WESTLAKE,TX,76262
DYER EL,KRUM,TX,76249
RUFINO MENDOZA SR EL,FORT WORTH,TX,76164
LYTLE DAEP,LYTLE,TX,78052
AIA LANCASTER MIDDLE,LANCASTER,TX,75146
DALLAS PARK EL,FORT WORTH,TX,76123
DALLAS COUNTY JJAEP,DALLAS,TX,75212
SCANLAN OAKS EL,MISSOURI CITY,TX,77459
COLDWELL EL,EL PASO,TX,79903
MAPLE LAWN EL,DALLAS,TX,75235
FRIENDSWOOD H S,FRIENDSWOOD,TX,77546
SUNSET EL,DUMAS,TX,79029
BELLAIRE EL,HURST,TX,76053
KOOKEN ED CTR,ARLINGTON,TX,76012
LAKE AIR MONTESSORI SCHOOL,WACO,TX,76710
SAISD - PK 4 SA,SAN ANTONIO,TX,78220
BURTON EL,BURTON,TX,77835
IDEA NORTH MISSION COLLEGE PREPARATORY,MISSION,TX,78574
WINFREE ACADEMY CHARTER SCHOOL - GRAND PRAIRIE,GRAND PRAIRIE,TX,75052
NAAMAN FOREST H S,GARLAND,TX,75040
ROSS MIDDLE,SAN ANTONIO,TX,78228
ILTEXAS KATY WESTPARK H S,RICHMOND,TX,77407
COLORADO EL AND MIDDLE,COLORADO CITY,TX,79512
IDEA ACADEMY MISSION,MISSION,TX,78572
DUNBAR PRI,LUFKIN,TX,75904
STILLMAN MIDDLE,BROWNSVILLE,TX,78521
SPILLANE MIDDLE,CYPRESS,TX,77429
A C JONES H S,BEEVILLE,TX,78102
WINFREE ACADEMY CHARTER SCHOOL (LEWISVILLE),LEWISVILLE,TX,75057
SAM HOUSTON EL,BRYAN,TX,77802
BRIDGE CITY H S,BRIDGE CITY,TX,77611
WOODLAWN ACADEMY,SAN ANTONIO,TX,78201
DEL RIO MIDDLE 8TH GRADE CAMPUS,DEL RIO,TX,78840
DEVERS JH,DEVERS,TX,77538
IDEA BROWNSVILLE ACADEMY,BROWNSVILLE,TX,78526
CANTU EL,ALTON,TX,78573
ALVIN J H,ALVIN,TX,77511
LUBBOCK CO J J A E P,LUBBOCK,TX,79415
COMANCHE H S,COMANCHE,TX,76442
HAC DAEP H S,SAN ANTONIO,TX,78214
BEXAR COUNTY LRN CTR,SAN ANTONIO,TX,78223
JOE DALE SPARKS CAMPUS,DENTON,TX,76205
BLOOMINGTON J H,BLOOMINGTON,TX,77951
REFUGIO EL,REFUGIO,TX,78377
KERRVILLE DISCIPLINARY ALTERNATIVE SCHOOL,KERRVILLE,TX,78028
UPLIFT HAMPTON PREPARATORY MIDDLE,DALLAS,TX,75237
ENERGIZED FOR EXCELLENCE ACADEMY INC MIDDLE,HOUSTON,TX,77081
CROUCH EL,GRAND PRAIRIE,TX,75051
SETON HOME,SAN ANTONIO,TX,78210
EDDIE BERNICE JOHNSON EL,DALLAS,TX,75204
JUBILEE LEADERSHIP ACADEMY,BROWNSVILLE,TX,78521
G L WILEY OPPORTUNITY CENTER,WACO,TX,76704
AUSTIN EL,MESQUITE,TX,75150
PIETZSCH/MAC ARTHUR EL,BEAUMONT,TX,77705
BIRDWELL SCHOOL,TYLER,TX,75701
BOOKER T WASHINGTON EL,WICHITA FALLS,TX,76303
H M KING H S,KINGSVILLE,TX,78363
PEARSON EARLY CHILDHOOD,PLANO,TX,75023
KATY J H,KATY,TX,77493
ELLEN OCHOA STEM ACADEMY AT BEN MILIAM EL,GRAND PRAIRIE,TX,75051
DUDLEY EL,VICTORIA,TX,77901
MONTGOMERY H S,MONTGOMERY,TX,77356
UPLIFT EDUCATION - INFINITY PREPARATORY MIDDLE SCH,IRVING,TX,75060
CASTLEMAN CREEK EL,HEWITT,TX,76643
COUNTY LINE EL,NEW BRAUNFELS,TX,78130
BOERNE ALTER SCH,BOERNE,TX,78006
FLOYDADA COLLEGIATE J H,FLOYDADA,TX,79235
HANNA EARLY COLLEGE H S,BROWNSVILLE,TX,78521
TARRANT CO J J A E P,SOUTHLAKE,TX,76092
FARLEY MIDDLE,HUTTO,TX,78634
MIRELES EL,CORPUS CHRISTI,TX,78414
CONLEY EL,HOUSTON,TX,77066
SINTON H S,SINTON,TX,78387
MCGREGOR H S,MCGREGOR,TX,76657
LOWERY FRESHMAN CENTER,ALLEN,TX,75002
LA MESA EL,PLAINVIEW,TX,79073
FRANKLIN H S,EL PASO,TX,79912
SERENITY HIGH,MCKINNEY,TX,75069
RICHARDSON HEIGHTS EL,RICHARDSON,TX,75080
MCCOLLUM H S,SAN ANTONIO,TX,78221
JOSEFA L SAMBRANO EL,SAN ELIZARIO,TX,79849
SHIELDS EL,VICTORIA,TX,77901
SPRING HILL J H,LONGVIEW,TX,75605
SCHOOL FOR THE HIGHLY GIFTED,GRAND PRAIRIE,TX,75052
HARLINGEN SCHOOL OF HEALTH PROFESSIONS,HARLINGEN,TX,78550
COPPERAS COVE H S,COPPERAS COVE,TX,76522
BAYTOWN J H,BAYTOWN,TX,77520
IDEA EASTSIDE ACADEMY,SAN ANTONIO,TX,78203
ISCHOOL HIGH - LEWISVILLE,LEWISVILLE,TX,75057
AUE EL,SAN ANTONIO,TX,78255
FORNEY LEARNING ACADEMY,FORNEY,TX,75126
DR JAVIER SAENZ MIDDLE,PENITAS,TX,78576
HARMONY SCHOOL OF EXCELLENCE - LAREDO,LAREDO,TX,78041
EARLY CHILDHOOD,EDINBURG,TX,78541
KIPP AUSTIN VISTA MIDDLE SCHOOLS,AUSTIN,TX,78724
NEW MIDDLE AT MCNEIL,ROUND ROCK,TX,78681
THE JOE BARNHART ACADEMY,BEEVILLE,TX,78102
RALPH PFLUGER EL,BUDA,TX,78610
ATHENS H S,ATHENS,TX,75751
TIMBERWOOD PARK EL,SAN ANTONIO,TX,78258
CENTRAL HEIGHTS MIDDLE,NACOGDOCHES,TX,75965
AUSTIN EL,HARLINGEN,TX,78550
BOLIN EL,PARKER,TX,75002
RENNER MIDDLE,PLANO,TX,75093
GLADEWATER PRI,GLADEWATER,TX,75647
C E ELLISON H S,KILLEEN,TX,76542
CEDAR CREEK INT,CEDAR CREEK,TX,78612
FORT HANCOCK MIDDLE,FT HANCOCK,TX,79839
ELADIO R MARTINEZ LEARNING CENTER,DALLAS,TX,75212
3D ACADEMY,DONNA,TX,78537
WALL SP PROG (FLC/BAC),SAN ANGELO,TX,76904
MICKEY LELAND COLLEGE PREP ACAD FOR YOUNG MEN,HOUSTON,TX,77020
HOOD-CASE EL,ALVIN,TX,77511
HILLSBORO H S,HILLSBORO,TX,76645
DANBURY EL,DANBURY,TX,77534
BILL HASSE EL,ALVIN,TX,77511
SAN PERLITA EL,SAN PERLITA,TX,78590
CHRISTENE C MOSS EL,FORT WORTH,TX,76119
BANGS H S,BANGS,TX,76823
FORT STOCKTON ALAMO EL,FORT STOCKTON,TX,79735
DR THOMAS ESPARZA EL,EDINBURG,TX,78539
ELYSIAN FIELDS H S,ELYSIAN FIELDS,TX,75642
R YZAGUIRRE MIDDLE,SAN JUAN,TX,78589
BELLVILLE J H,BELLVILLE,TX,77418
ALTO H S,ALTO,TX,75925
DAWSON EL,DAWSON,TX,76639
YES PREP - SOUTHSIDE,HOUSTON,TX,77033
LUBBOCK-COOPER BUSH MIDDLE,LUBBOCK,TX,79423
LEADERSHIP PREP SCHOOL SECONDARY,FRISCO,TX,75034
COOLIDGE H S,COOLIDGE,TX,76635
EDNA ROWE EL,DALLAS,TX,75227
FOWLER EL,WICHITA FALLS,TX,76310
MABANK INT,MABANK,TX,75147
PARKER EL,HOUSTON,TX,77096
ELYSIAN FIELDS MIDDLE,ELYSIAN FIELDS,TX,75642
WILLOW CREEK EL,SAGINAW,TX,76131
SKYLINE H S,DALLAS,TX,75227
SECONDARY ALTER CTR,HARLINGEN,TX,78550
PREMIER H S OF AUSTIN,AUSTIN,TX,78704
APPLE SPRINGS H S,APPLE SPRINGS,TX,75926
ALPINE H S,ALPINE,TX,79830
MAYDE CREEK H S,HOUSTON,TX,77084
MIDWAY ALTERNATIVE H S,CANYON,TX,79015
RANGER H S,RANGER,TX,76470
LANSBERRY EL,TRINITY,TX,75862
HASKELL EL,HASKELL,TX,79521
JUBILEE LIVING WAY,BROWNSVILLE,TX,78526
TRAVIS COUNTY J J A E P,AUSTIN,TX,78703
POR VIDA ACADEMY CORPUS CHRISTI,CORPUS CHRISTI,TX,78411
LAURA B WALLACE MIDDLE,KYLE,TX,78640
JOHNSON COUNTY J J A E P,CLEBURNE,TX,76031
MARTIN H S,LAREDO,TX,78040
CRYSTAL CITY H S,CRYSTAL CITY,TX,78839
VAN VLECK EL,VAN VLECK,TX,77482
FENWICK ACADEMY,SAN ANTONIO,TX,78228
UNIVERSAL ACADEMY - COPPELL,COPPELL,TX,75019
RUSH EL,LUBBOCK,TX,79416
DUNN EL,ARLINGTON,TX,76013
PRESTONWOOD EL,DALLAS,TX,75248
MOISES E MOLINA H S,DALLAS,TX,75211
LEON HEIGHTS EL,BELTON,TX,76513
HARMONY SCHOOL OF INNOVATION - SAN ANTONIO,SAN ANTONIO,TX,78239
RUSTIC OAK EL,PEARLAND,TX,77581
KETELSEN EL,HOUSTON,TX,77009
VILLAREAL EL,OLMITO,TX,78575
ANTHONY MIDDLE,ANTHONY,TX,79821
ROWLETT EL,ROWLETT,TX,75088
SHIELDS EL,GLENN HEIGHTS,TX,75154
MCREYNOLDS MIDDLE,HOUSTON,TX,77020
LLANO EL,LLANO,TX,78643
JACKSON-KELLER EL,SAN ANTONIO,TX,78213
NATALIA H S,NATALIA,TX,78059
COKER EL,SAN ANTONIO,TX,78232
JAMES M STEELE H S,ROANOKE,TX,76262
WEST RUSK MIDDLE,NEW LONDON,TX,75682
TEAGUE J H,TEAGUE,TX,75860
CLASSICAL CENTER AT VIAL EL,GARLAND,TX,75043
JAMES PATTERSON EL,RICHMOND,TX,77407
ROBERTO BOBBY BARRERA EL STEM MAGNET,LAUGHLIN AFB,TX,78843
DAVIS EL,AUSTIN,TX,78727
HUBBARD EL,HUBBARD,TX,76648
FRAZIER EL,HOUSTON,TX,77089
MISSION EARLY LEARNING,MISSION,TX,78572
ALLEN & WILLIAM ARNOLD EL,PHARR,TX,78577
MARY E SMITHEY PACE H S,DUNCANVILLE,TX,75116
QUEEN CITY H S,QUEEN CITY,TX,75572
I C EVANS EL,BURKBURNETT,TX,76354
DITTO EL,ARLINGTON,TX,76016
MS-5 NW MIDDLE,EL PASO,TX,79925
LIPAN H S,LIPAN,TX,76462
KOUNTZE H S,KOUNTZE,TX,77625
POMEROY EL,PASADENA,TX,77506
NORTH FORNEY H S,FORNEY,TX,75126
CLARKSTON EL,TYLER,TX,75701
GLADEWATER H S,GLADEWATER,TX,75647
LASA H S,AUSTIN,TX,78724
BENFER EL,KLEIN,TX,77379
LAKEWOOD EL,BELTON,TX,76513
WHIDBY EL,HOUSTON,TX,77021
GLENN C HARDIN INT,DUNCANVILLE,TX,75116
NEW WAVERLY J H,NEW WAVERLY,TX,77358
WILLIAMSON JJAEP,GEORGETOWN,TX,78626
BONHAM EL,MIDLAND,TX,79703
QUEST EARLY COLLEGE H S,HUMBLE,TX,77338
TAYS J H,KATY,TX,77494
HERITAGE ACADEMY OF SAN ANTONIO,WINDCREST,TX,78239
WILLIAMSON CO ACADEMY,GEORGETOWN,TX,78626
VAN ZANDT CO YOUTH MULTI-SERVICE CTR,GRAND SALINE,TX,75140
E RAY EL,FORT WORTH,TX,76134
CAMERON CO J J A E P,PORT ISABEL,TX,78578
GOLDTHWAITE EL,GOLDTHWAITE,TX,76844
BRIDGEPORT INT,BRIDGEPORT,TX,76426
HARMONY SCHOOL OF INNOVATION - WACO,BEVERLY HILLS,TX,76711
SOUTH EARLY COLLEGE H S,HOUSTON,TX,77051
IDEA BRACKENRIDGE ACADEMY,SAN ANTONIO,TX,78242
HIGHLAND LAKES EL,GRANITE SHOALS,TX,78654
OAK PARK SPECIAL EMPHASIS SCHOOL,CORPUS CHRISTI,TX,78408
HUTCHINSON MIDDLE,LUBBOCK,TX,79410
JOSE DE ESCANDON EL,MISSION,TX,78572
WALZEM EL,SAN ANTONIO,TX,78218
MERKEL MIDDLE,MERKEL,TX,79536
NORDHEIM SCHOOL,NORDHEIM,TX,78141
STEVENSON MIDDLE,HOUSTON,TX,77017
TEAGUE LION ACADEMY,TEAGUE,TX,75860
BLACKLAND PRAIRIE EL,ROUND ROCK,TX,78664
ALDINE MIDDLE,HOUSTON,TX,77032
PSJA SONIA M SOTOMAYOR H S,PHARR,TX,78577
LAKEWAY EL,AUSTIN,TX,78734
BENAVIDES EL,BENAVIDES,TX,78341
HAMILTON MIDDLE,HOUSTON,TX,77008
MEDINA VALLEY H S,CASTROVILLE,TX,78009
WARREN JJAEP,KOUNTZE,TX,77625
IDEA COLLEGE PREP WESLACO,WESLACO,TX,78599
ALFRED SORENSEN EL,SAN JUAN,TX,78589
SMITH EL,HOUSTON,TX,77099
TURNING POINT SECONDARY SCHOOL,ARLINGTON,TX,76012
RICHARD MILBURN ACADEMY LUBBOCK,LUBBOCK,TX,79412
HUNTERS GLEN EL,MISSOURI CITY,TX,77489
NEW DEAL EL,NEW DEAL,TX,79350
CONNALLY MIDDLE,SAN ANTONIO,TX,78250
PROSPER H S,PROSPER,TX,75078
KOENNECKE EL,SEGUIN,TX,78155
CHISUM H S,PARIS,TX,75462
HUNT MIDDLE,FRISCO,TX,75034
MARGIL ACADEMY,SAN ANTONIO,TX,78207
EUBANKS INT,SOUTHLAKE,TX,76092
WEST MAIN EL,LANCASTER,TX,75146
CLEAR LAKE H S,HOUSTON,TX,77058
STONEWALL EL,STONEWALL,TX,78671
MCCREARY RD EL,PLANO,TX,75075
IOWA PARK H S,IOWA PARK,TX,76367
HUMPHREY'S HIGHLAND EL,AMARILLO,TX,79104
FINLEY EL,LAREDO,TX,78041
THOMAS HANCOCK EL,HOUSTON,TX,77075
WESTERN HILLS EL,TEMPLE,TX,76504
WESTBROOK INT,FRIENDSWOOD,TX,77546
BIRDVILLE H S,NORTH RICHLAND HILLS,TX,76180
STEINER RANCH EL,AUSTIN,TX,78732
BLANCO EL,BLANCO,TX,78606
ELVIS J BALLEW H S,PHARR,TX,78577
JIM NED MIDDLE,TUSCOLA,TX,79562
BAY CITY H S,BAY CITY,TX,77414
EDUARDO MATA MONTESSORI SCHOOL,DALLAS,TX,75204
CENTRAL EL,DUNCANVILLE,TX,75116
TEKOA ACADEMY OF ACCELERATED STUDIES,PORT ARTHUR,TX,77640
LYTLE H S,LYTLE,TX,78052
ADRIAN SCHOOL,ADRIAN,TX,79001
STORM EL,SAN ANTONIO,TX,78207
REAGAN EL,ABILENE,TX,79605
AZLE HORNET ACADEMY,AZLE,TX,76020
GLENHOPE EL,COLLEYVILLE,TX,76034
MOUNT CARMEL ACADEMY,HOUSTON,TX,77061
MAURICEVILLE MIDDLE,ORANGE,TX,77632
NAVARRO MIDDLE,HOUSTON,TX,77023
MCLEAN MIDDLE,FORT WORTH,TX,76109
WILLIAM B MILLER EL,DALLAS,TX,75216
DR FERMIN CALDERON EL,DEL RIO,TX,78840
TRAVIS EL,HOUSTON,TX,77009
JOAQUIN CIGARROA MIDDLE,LAREDO,TX,78046
FLOUR BLUFF H S,CORPUS CHRISTI,TX,78418
SHERMAN EL,HOUSTON,TX,77009
WELLINGTON EL,FLOWER MOUND,TX,75022
OLNEY H S,OLNEY,TX,76374
MINERAL WELLS H S,MINERAL WELLS,TX,76067
EMERSON EL,HOUSTON,TX,77063
PUCKETT EL,AMARILLO,TX,79109
HARDIN CO ALTER ED,KOUNTZE,TX,77625
SEAGOVILLE H S,DALLAS,TX,75253
GRAHAM J H,GRAHAM,TX,76450
TOMBALL MEMORIAL H S,TOMBALL,TX,77377
BANGS H S,BANGS,TX,76823
CADDO MILLS MIDDLE,CADDO MILLS,TX,75135
SMITH H S,CARROLLTON,TX,75006
SOUTH LAWN EL,AMARILLO,TX,79110
THOMPSON EL,HOUSTON,TX,77060
DALHART INT,DALHART,TX,79022
THOMAS JEFFERSON H S,DALLAS,TX,75229
BAILEY J H,ARLINGTON,TX,76013
GOLIAD H S,GOLIAD,TX,77963
SCHULENBURG EL,SCHULENBURG,TX,78956
TIMBERS EL,HUMBLE,TX,77346
SCHOOL OF SCIENCE AND TECHNOLOGY - ALAMO,SAN ANTONIO,TX,78233
BASTIAN EL,HOUSTON,TX,77033
CAMPBELL EL,KATY,TX,77441
ETOILE ACADEMY CHARTER SCHOOL,HOUSTON,TX,77074
LEONARD J H,LEONARD,TX,75452
HART EL,AUSTIN,TX,78753
ANSON EL,ANSON,TX,79501
ROBERT H ROCKENBAUGH EL,SOUTHLAKE,TX,76092
PEGASUS SCHOOL,LOCKHART,TX,78644
CEDAR CREEK MIDDLE,CEDAR CREEK,TX,78612
EDUCATION CENTER INTERNATIONAL ACADEMY 1,SUNNYVALE,TX,75182
WARNER EL,CYPRESS,TX,77433
PALO DURO H S,AMARILLO,TX,79107
SCHERTZ EL,SCHERTZ,TX,78154
HOMEBOUND,LUBBOCK,TX,79401
WOLFLIN EL,AMARILLO,TX,79109
VETERANS MIDDLE,RIO GRANDE CITY,TX,78582
TARRANT CO J J A E P,HALTOM CITY,TX,76117
RIO VISTA ISD JJAEP,CLEBURNE,TX,76031
CHRISTA MCAULIFFE LEARNING CENTER,RICHARDSON,TX,75081
JOHN F PEELER EL,DALLAS,TX,75208
EARLY COLLEGE H S,HARLINGEN,TX,78550
HULL-DAISETTA H S,DAISETTA,TX,77533
CRANE H S,CRANE,TX,79731
TOOL EL,TOOL,TX,75143
BARBARA JORDAN EL,ODESSA,TX,79765
BRECKENRIDGE H S,BRECKENRIDGE,TX,76424
JAMES AND MARGIE MARION EL,ALLEN,TX,75002
HOFFMANN EL,SAN ANTONIO,TX,78253
LAMAR MIDDLE,TEMPLE,TX,76501
UPLIFT EDUCATIION-NORTH HILLS PREP PRI,IRVING,TX,75039
LEVELLAND H S,LEVELLAND,TX,79336
WASHINGTON EL,SAN ANTONIO,TX,78202
BEL AIR MIDDLE,EL PASO,TX,79915
IRVING EL,CLEBURNE,TX,76031
PAMPA H S,PAMPA,TX,79065
HUTCHINS EL,EL CAMPO,TX,77437
FOUNDERS CLASSICAL ACADEMY OF SCHERTZ,SCHERTZ,TX,78154
TALLEY EL,FRISCO,TX,75035
V R EATON H S,FORT WORTH,TX,76052
CYPRESSWOOD EL,HUMBLE,TX,77338
RIDGE CREEK EL,HUMBLE,TX,77396
IDEA TRES LAGOS COLLEGE PREPARATORY,MCALLEN,TX,78504
EUGENE 'GENE' KRANZ J H,DICKINSON,TX,77539
GIDDINGS INT,GIDDINGS,TX,78942
WILLIAMSON COUNTY JUVENILE DETENTION CENTER,GEORGETOWN,TX,78626
STEVENSON MIDDLE,SAN ANTONIO,TX,78254
MILTON COOPER EL,HOUSTON,TX,77073
WOODLAWN HILLS EL,SAN ANTONIO,TX,78228
BENAVIDES SECONDARY,BENAVIDES,TX,78341
COLONY MEADOWS EL,SUGAR LAND,TX,77479
MIKE MOSES MIDDLE,NACOGDOCHES,TX,75961
DILLEY H S,DILLEY,TX,78017
FIEST EL,HOUSTON,TX,77095
RALLS MIDDLE,RALLS,TX,79357
SOUTHSIDE EL,ANGLETON,TX,77515
TRAVIS MIDDLE,MCALLEN,TX,78501
STERLING H S,HOUSTON,TX,77048
PILLOW EL,AUSTIN,TX,78757
PREMIER H S OF SAN JUAN,SAN JUAN,TX,78589
PARIS H S,PARIS,TX,75460
BLISS EL,EL PASO,TX,79906
SPARKS EL,FRISCO,TX,75034
DIGITAL ARTS & TECHNOLOGY ACADEMY AT ADAMS MIDDLE,GRAND PRAIRIE,TX,75050
INDUSTRIAL EL WEST,INEZ,TX,77968
BRYAN EL,MISSION,TX,78572
LUBBOCK-COOPER SOUTH EL,LUBBOCK,TX,79423
AULT EL,CYPRESS,TX,77429
HARRIS MIDDLE,SAN ANTONIO,TX,78247
MALCOLM RECTOR TECHNICAL H S,NACOGDOCHES,TX,75965
LEGACY SCHOOL OF SPORT SCIENCES,SPRING,TX,77373
COYLE MIDDLE,ROWLETT,TX,75088
CUNNINGHAM MIDDLE AT SOUTH PARK,CORPUS CHRISTI,TX,78415
O C TAYLOR CTR,BEAUMONT,TX,77702
LINCOLN MIDDLE,EL PASO,TX,79932
STUCHBERY EL,HOUSTON,TX,77089
TEXAS PREPARATORY SCHOOL,SAN MARCOS,TX,78666
J L LONG MIDDLE,DALLAS,TX,75214
FOREST BROOK MIDDLE,HOUSTON,TX,77016
DR M L GARZA-GONZALEZ CHARTER SCHOOL,CORPUS CHRISTI,TX,78416
TYLER H S,TYLER,TX,75702
GREAT OAKS EL,ROUND ROCK,TX,78681
MCAULIFFE EL,MCALLEN,TX,78501
WILLOW CREEK EL,KINGWOOD,TX,77345
LIBERTY J H,DALLAS,TX,75243
RICHARDSON NORTH J H,RICHARDSON,TX,75080
DONNA PARK,HURST,TX,76053
WOLFE CITY MIDDLE,WOLFE CITY,TX,75496
ROBERTS EL,SAN BENITO,TX,78586
ERECKSON MIDDLE,ALLEN,TX,75013
LONDON H S,CORPUS CHRISTI,TX,78415
H S AHEAD ACADEMY,HOUSTON,TX,77091
BLAND EL,CELESTE,TX,75423
NYOS - MAGNOLIA MCCULLOUGH CAMPUS,AUSTIN,TX,78753
LYFORD H S,LYFORD,TX,78569
GIDDINGS EL,GIDDINGS,TX,78942
POTTSBORO MIDDLE,POTTSBORO,TX,75076
WEST RUSK EL,NEW LONDON,TX,75682
WILLIAMSON COUNTY JJAEP,GEORGETOWN,TX,78626
RIO GRANDE CITY CISD GRULLA H S,RIO GRANDE CITY,TX,78582
SMITH EL,HOUSTON,TX,77092
THE WOODLANDS H S,THE WOODLANDS,TX,77381
OUSLEY J H,ARLINGTON,TX,76018
LAWLER MIDDLE,FRISCO,TX,75035
ENERGIZED FOR STEM ACADEMY H S,HOUSTON,TX,77074
PEREZ EL,BROWNSVILLE,TX,78521
TYLER ISD EARLY COLLEGE H S,TYLER,TX,75701
SAM HOUSTON EL,MARSHALL,TX,75672
LIVE OAK ACADEMY,BUDA,TX,78610
TOLAR H S,TOLAR,TX,76476
WHITE OAK H S,WHITE OAK,TX,75693
PEARL HALL EL,SO HOUSTON,TX,77587
RALLS H S,RALLS,TX,79357
CLEVELAND H S,CLEVELAND,TX,77327
SPRING H S,SPRING,TX,77373
RAUL A GONZALEZ JR EL,WESLACO,TX,78596
WILLIAMS EL,AUSTIN,TX,78748
NEWGULF EL,BOLING,TX,77420
CHESTER H S,CHESTER,TX,75936
ZAVALLA H S,ZAVALLA,TX,75980
LEWIS EL,SAN ANTONIO,TX,78251
TRAVIS INT,CONROE,TX,77301
VALLEY VIEW EL,AUSTIN,TX,78746
MEDINA VALLEY MIDDLE,CASTROVILLE,TX,78009
FW RGNL PROGRAM FOR DEAF,FORT WORTH,TX,76107
SAN DIEGO H S,SAN DIEGO,TX,78384
COL SANTOS BENAVIDES EL,LAREDO,TX,78045
CUMBY EL,CUMBY,TX,75433
DIBOLL PRI,DIBOLL,TX,75941
ROBERTS EL,LUBBOCK,TX,79423
FREDERICKSBURG PRI,FREDERICKSBURG,TX,78624
TRAVIS EL,ENNIS,TX,75119
FORT STOCKTON APACHE EL,FORT STOCKTON,TX,79735
MARCY EL,BIG SPRING,TX,79720
WORLD LANGUAGES INSTITUTE,FORT WORTH,TX,76104
JEAN MASSIEU ACADEMY,ARLINGTON,TX,76011
INDIAN CREEK EL,SAN ANTONIO,TX,78242
HILL COUNTRY MIDDLE,AUSTIN,TX,78746
THE BRIDGES ACAD ALTER,COLLEYVILLE,TX,76034
RANGE EL,MESQUITE,TX,75150
WILLIAM J WINKLEY EL,LEANDER,TX,78641
GEORGE J H,ROSENBERG,TX,77471
YOUNG MEN'S LEADERSHIP ACADEMY AT FRED F FLORENCE,DALLAS,TX,75217
BARBARA FASKEN EL,LAREDO,TX,78045
DEER PARK J H,DEER PARK,TX,77536
PLEASANT GROVE EL,DALLAS,TX,75217
EXCELSIOR EL,CENTER,TX,75935
UPLIFT EDUCATION-NORTH HILLS PREP H S,IRVING,TX,75039
TRINIDAD SCHOOL,TRINIDAD,TX,75163
KIPP AUSTIN ACADEMY OF ARTS & LETTERS,AUSTIN,TX,78724
NIXON SMILEY EL,SMILEY,TX,78159
EDDIE FINLEY SR J H,WAXAHACHIE,TX,75165
ALAN B SHEPARD MIDDLE,SAN ANTONIO,TX,78242
BURNET MIDDLE,AUSTIN,TX,78757
SEYMOUR H S,SEYMOUR,TX,76380
O H HERMAN MIDDLE,VAN VLECK,TX,77482
HILLCREST EL,DUMAS,TX,79029
TOM C GOOCH EL,DALLAS,TX,75244
FORSAN EL,BIG SPRING,TX,79733
RAYMONDVILLE H S,RAYMONDVILLE,TX,78580
ALVORD EL,ALVORD,TX,76225
SCURRY-ROSSER EL,SCURRY,TX,75158
VIOLA COBB EL,CHANNELVIEW,TX,77530
SHELDON EL,HOUSTON,TX,77049
HULL-DAISETTA J H,DAISETTA,TX,77533
NELSON MIDDLE,FRISCO,TX,75035
AUSTIN ACAD FOR EXCELL,GARLAND,TX,75040
VOSS FARMS EL,NEW BRAUNFELS,TX,78130
R C FLORES-MARK A ZAPATA EL,EDINBURG,TX,78540
AUSTIN EL,MEMPHIS,TX,79245
LUCYLE COLLINS MIDDLE,FORT WORTH,TX,76106
STARRETT EL,GRAND PRAIRIE,TX,75052
ROLLING MEADOWS EL,SAN ANTONIO,TX,78233
PROJECT RESTORE,NEW CANEY,TX,77357
PATHWAYS LEARNING CTR,BEAUMONT,TX,77706
BONNER EL,HOUSTON,TX,77017
LOMAX EL,LA PORTE,TX,77571
CHARLOTTE MIDDLE,CHARLOTTE,TX,78011
OAKWOOD TERRACE EL,EULESS,TX,76040
THOMPSON EL,CARROLLTON,TX,75007
HEMPHILL EL,HEMPHILL,TX,75948
KENNEDY ZAPATA EL,LAREDO,TX,78046
KENTWOOD EL,BIG SPRING,TX,79720
BLEYL MIDDLE,HOUSTON,TX,77070
LANDRUM MIDDLE,HOUSTON,TX,77055
AMHERST SCHOOL,AMHERST,TX,79312
PARKSIDE EL,GEORGETOWN,TX,78628
KILLIAN MIDDLE,LEWISVILLE,TX,75056
PALM EL,AUSTIN,TX,78744
WOOD MIDDLE,SAN ANTONIO,TX,78233
LITTLE CYPRESS EL,ORANGE,TX,77632
ALTO BONITO EL,RIO GRANDE CITY,TX,78582
STUARD EL,ALEDO,TX,76008
HOSP EL,FRISCO,TX,75034
WEST BROOKHAVEN YOUTH RANCH SCHOOL,WEST,TX,76691
D A E P,CONROE,TX,77301
THUNDERBIRD EL,PLAINVIEW,TX,79072
RIVERCHASE ELE,COPPELL,TX,75019
ANITA FERRALES COY FACILITY,AUSTIN,TX,78702
I W AND ELEANOR HYDE EL,LEAGUE CITY,TX,77573
SAN PEDRO EL,ROBSTOWN,TX,78380
HOWE MIDDLE,HOWE,TX,75459
EDGEWOOD EL,HOUSTON,TX,77080
HEMPHILL H S,HEMPHILL,TX,75948
LINCOLN MIDDLE,PORT ARTHUR,TX,77640
GLENN HARMON EL,ARLINGTON,TX,76017
RICE INTERMEDIATE/MIDDLE SCHOOL,RICE,TX,75155
HARMONY SCHOOL OF ADVANCEMENT-HOUSTON,HOUSTON,TX,77038
HEBRON H S,CARROLLTON,TX,75010
F P CAILLET EL,DALLAS,TX,75229
PREMIER H S OF MIDLAND,MIDLAND,TX,79703
BRENTWOOD MIDDLE,SAN ANTONIO,TX,78226
J N ERVIN EL,DALLAS,TX,75241
MCANALLY INT,ALEDO,TX,76008
J M HANKS H S,EL PASO,TX,79935
PANOLA EARLY COLLEGE H S,CARTHAGE,TX,75633
CURTIS EL,WEATHERFORD,TX,76086
COASTAL ALTERNATIVE PROGRAM,SANTA FE,TX,77510
PINNACLE INT,AMARILLO,TX,79118
SAN JACINTO J H,MIDLAND,TX,79701
LONE STAR H S CENTRAL,MART,TX,76664
HUGGINS EL,FULSHEAR,TX,77441
LONG MIDDLE,DALLAS,TX,75287
PECOS KIND,PECOS,TX,79772
PENA EL,BROWNSVILLE,TX,78526
BUDEWIG INT,HOUSTON,TX,77082
GODDARD J H,MIDLAND,TX,79705
NAVARRO EARLY COLLEGE H S,AUSTIN,TX,78758
GLENMORE EL,SAN ANGELO,TX,76903
THRALL EL,THRALL,TX,76578
HULL EL,SAN ANTONIO,TX,78227
GEORGE H W BUSH NEW TECH ODESSA,ODESSA,TX,79761
BARBARA M MANNS H S DAEP,DALLAS,TX,75224
ROY BENAVIDEZ EL,SAN ANTONIO,TX,78224
BELL EL,TYLER,TX,75701
LUNA MIDDLE,SAN ANTONIO,TX,78253
AUGUSTO GUERRA EL,ALAMO,TX,78516
MAMBRINO SCHOOL,GRANBURY,TX,76048
RICHARDSON H S,RICHARDSON,TX,75080
SNOOK SECONDARY,SOMERVILLE,TX,77879
CRUTCHFIELD EL,SHERMAN,TX,75090
BECKVILLE SUNSET EL,BECKVILLE,TX,75631
NEW DIRECTIONS,SAN ANTONIO,TX,78209
CEDAR HILL COLLEGIATE PREP,CEDAR HILL,TX,75104
HOMEBOUND,KINGSVILLE,TX,78363
RODGER & ELLEN BECK J H,KATY,TX,77450
TEXAS ONLINE PREPARATORY EL,HUNTSVILLE,TX,77320
MARTIN LUTHER KING JR ARTS ACADEMY,DALLAS,TX,75215
EARLY CHILDHOOD CENTER,CHANNELVIEW,TX,77530
WOODEN EL,RED OAK,TX,75154
SOUTH HILLS H S,FORT WORTH,TX,76133
WILSON EL,SAN ANTONIO,TX,78201
SAVANNAH EL,AUBREY,TX,76227
MATTHEWS LEARNING CENTER,LUBBOCK,TX,79415
ROWLETT H S,ROWLETT,TX,75088
WILLOW CREEK EL,TOMBALL,TX,77377
SAN CARLOS EL,EDINBURG,TX,78539
UPLIFT WILLIAMS PREPARATORY H S,DALLAS,TX,75235
A+ UNLIMITED POTENTIAL - MUSEUM DISTRICT,HOUSTON,TX,77006
TURNING POINT SECONDARY SCHOOL,ARLINGTON,TX,76012
TRIUMPH PUBLIC HIGH SCHOOLS-EL PASO EAST,EL PASO,TX,79936
VAN J H,VAN,TX,75790
O'DELL EL,CELINA,TX,75009
TAYLOR COUNTY LEARNING CENTER,ABILENE,TX,79603
EMMA ROBERSON EL,GRANBURY,TX,76048
WALSH EL,FORT WORTH,TX,76008
BANDERA H S,BANDERA,TX,78003
DIMMITT MIDDLE,DIMMITT,TX,79027
OLFEN SCHOOL,ROWENA,TX,76875
BIG SPRING INT,BIG SPRING,TX,79720
ANDERSON-SHIRO EL,ANDERSON,TX,77830
FOREST CREEK EL,ROUND ROCK,TX,78664
TATUM H S,TATUM,TX,75691
STANTON MIDDLE,STANTON,TX,79782
FIRST COLONY MIDDLE,SUGAR LAND,TX,77479
HIDDEN COVE EL,SAN ANTONIO,TX,78242
PEWITT J H,OMAHA,TX,75571
BLOCK HOUSE CREEK EL,LEANDER,TX,78641
ROBINSON EL,ROBINSON,TX,76706
R A HALL EL,BEEVILLE,TX,78102
VISTA RIDGE H S,CEDAR PARK,TX,78613
HELEN EDWARD EARLY CHILDHOOD CENTER,KAUFMAN,TX,75142
LAPOYNOR H S,LARUE,TX,75770
CESAR CHAVEZ MIDDLE,WACO,TX,76706
DENTON CO J J A E P,PILOT POINT,TX,76258
RIO VISTA MIDDLE,RIO VISTA,TX,76093
ROBERT KING EL,KATY,TX,77493
MCDADE EL,MCDADE,TX,78650
NEIDIG EL,ELGIN,TX,78621
EAST HANDLEY EL,FORT WORTH,TX,76112
HASTINGS H S,HOUSTON,TX,77072
PASADENA HIGH SCHOOL,PASADENA,TX,77506
CANADIAN H S,CANADIAN,TX,79014
SAN SABA H S,SAN SABA,TX,76877
DON R DANIEL NINTH GRADE CAMPUS,ALEDO,TX,76008
HETTIE HALSTEAD EL,COPPERAS COVE,TX,76522
UPLIFT HEIGHTS PREPARATORY H S,DALLAS,TX,75212
SPECIAL PROG CTR/J J A E P,MCKINNEY,TX,75069
HIGHPOINT - DAEP,LA PORTE,TX,77571
CEDAR CREST,BELTON,TX,76513
MALALA YOUSAFZAI,RICHMOND,TX,77407
AMANDA ROCHELL EL,ROCKWALL,TX,75032
PROGRESO EARLY CHILDHOOD,PROGRESO,TX,78579
PEARLAND J H EAST,PEARLAND,TX,77581
SPLENDORA H S,SPLENDORA,TX,77372
LOUISE CABANISS EL,GRAND PRAIRIE,TX,75052
HILL COUNTY JJAEP,HILLSBORO,TX,76645
EL PASO ACADEMY,EL PASO,TX,79935
WINDERMERE EL,PFLUGERVILLE,TX,78660
SANTA ANNA EL,SANTA ANNA,TX,76878
CUMBY H S,CUMBY,TX,75433
WOODCREEK EL,KATY,TX,77494
MERIDIAN WORLD SCHOOL LLC,ROUND ROCK,TX,78664
MOORE M H EL,FORT WORTH,TX,76106
CALLISBURG EL,GAINESVILLE,TX,76240
CARROLL EL,CORSICANA,TX,75110
INTERNATIONAL H S,AUSTIN,TX,78721
CUERO J H,CUERO,TX,77954
DEPELCHIN-RICHMOND,RICHMOND,TX,77469
CELESTE H S,CELESTE,TX,75423
KELLER EARLY LEARNING CENTER - NORTH,KELLER,TX,76244
ILTEXAS ARLINGTON MIDDLE,ARLINGTON,TX,76017
CENTER INT,CENTER,TX,75935
TROUP H S,TROUP,TX,75789
ANN RICHARDS STEAM ACADEMY,DALLAS,TX,75227
HIDALGO CO J J A E P,MCALLEN,TX,78501
ROSEMONT MIDDLE,FORT WORTH,TX,76115
EDITH & ETHEL CARMAN EL,SAN JUAN,TX,78589
FOSTER H S,RICHMOND,TX,77406
W W SAMUELL H S,DALLAS,TX,75217
PREMIER H S OF LAREDO,LAREDO,TX,78043
IRELAND EL,ODESSA,TX,79762
MCKINNEY H S,MCKINNEY,TX,75069
NORTHRICH EL,RICHARDSON,TX,75080
JUDY HAJEK EL,BURLESON,TX,76028
BEATRICE MAYES INSTITUTE CHARTER SCHOOL,HOUSTON,TX,77021
DERRY EL,PORT ISABEL,TX,78578
THREE RIVERS EL,THREE RIVERS,TX,78071
HIGHLAND PARK H S,DALLAS,TX,75205
RICHARD MILBURN ACADEMY HOUSTON (SUBURBAN),HOUSTON,TX,77073
EAGLE PASS H S,EAGLE PASS,TX,78852
HIGHLAND HTS EL,HOUSTON,TX,77091
ARLINGTON HEIGHTS H S,FORT WORTH,TX,76107
MEMORIAL PATHWAY ACADEMY H S,GARLAND,TX,75041
RUSK INT,RUSK,TX,75785
HUBBARD ISD,DEKALB,TX,75559
TWIN CREEKS MIDDLE,SPRING,TX,77373
HORNE EL,HOUSTON,TX,77084
ALTA VISTA EL,WACO,TX,76706
MAURICE L WOLFE EL,HOUSTON,TX,77079
TORNILLO INT,TORNILLO,TX,79853
D A HULCY STEAM MIDDLE,DALLAS,TX,75232
P E P,PEP,TX,79353
IDEA EDINBURG ACADEMY,EDINBURG,TX,78541
JOHN T WHITE EL,FORT WORTH,TX,76120
BRIGHT ACAD,FRISCO,TX,75034
DAVID W CARTER H S,DALLAS,TX,75232
SANTA MARIA ACADEMIC ACADEMY-OPTIONS CAMPUS (6-12),SANTA MARIA,TX,78592
DR MARIA PALMIRA MENDIOLA EL,MISSION,TX,78572
JHW INSPIRE ACADEMY - BELL COUNTY,KILLEEN,TX,76543
DEGAN EL,LEWISVILLE,TX,75077
NORTH HEIGHTS ALTER,AMARILLO,TX,79108
BERRY EL,HOUSTON,TX,77093
ALLEN EL,CORPUS CHRISTI,TX,78404
METHODIST CHILDREN'S HOME,WACO,TX,76708
DAEP,EAGLE PASS,TX,78852
MORNINGSIDE EL,FORT WORTH,TX,76104
PARKLAND PRE-ENGINEERING MIDDLE,EL PASO,TX,79924
WILKINSON EL,CONROE,TX,77301
RUNGE EL,RUNGE,TX,78151
UNDERWOOD EL,ANDREWS,TX,79714
CANYON RIDGE MIDDLE,AUSTIN,TX,78732
WOODVILLE INT,WOODVILLE,TX,75979
IOWA PARK JJAEP,WICHITA FALLS,TX,76304
TEXANS CAN ACADEMY - GRANT EAST,DALLAS,TX,75241
SOUTHSIDE EL,MABANK,TX,75147
GATESVILLE J H,GATESVILLE,TX,76528
DR PAUL S SAENZ J H,SAN ANTONIO,TX,78213
GRANDVIEW EL,GRANDVIEW,TX,76050
SCHULZE EL,IRVING,TX,75060
ROYSE CITY H S,ROYSE CITY,TX,75189
SEAGOVILLE NORTH EL,DALLAS,TX,75159
RABA EL,SAN ANTONIO,TX,78251
AVERY EL,AVERY,TX,75554
MILLER EL,LUBBOCK,TX,79413
CLARENDON J H,CLARENDON,TX,79226
ALTER ED CTR,ODESSA,TX,79762
GAINESVILLE H S,GAINESVILLE,TX,76240
SALADO MIDDLE,SALADO,TX,76571
BROOKS ACADEMY OAKS,SAN ANTONIO,TX,78240
PREMIER H S OF NORTH AUSTIN,AUSTIN,TX,78727
ADAMS J H,FULSHEAR,TX,77441
KEMP PRI,KEMP,TX,75143
RIDER H S,WICHITA FALLS,TX,76310
CAVAZOS MIDDLE,LUBBOCK,TX,79415
REDLAND OAKS EL,SAN ANTONIO,TX,78247
RUBEN HINOJOSA EL,MERCEDES,TX,78570
BOB HOPE SCHOOL,PORT ARTHUR,TX,77642
ROBERT DRISCOLL JR EL,ROBSTOWN,TX,78380
DOGAN EL,HOUSTON,TX,77026
CARROLL T WELCH EL,EL PASO,TX,79928
WOODWAY EL,FORT WORTH,TX,76133
SAM FORDYCE EL,SULLIVAN CITY,TX,78595
WEST CYPRESS HILLS EL,SPICEWOOD,TX,78669
MAYPEARL H S,MAYPEARL,TX,76064
DAILEY MIDDLE,AUSTIN,TX,78725
KOPPERL SCHOOL,KOPPERL,TX,76652
COASTAL HORIZONS ACADEMY,TAFT,TX,78390
EAST RIDGE EL,SWEETWATER,TX,79556
WEDGWOOD MIDDLE,FORT WORTH,TX,76133
YWLA AT BILL ARNOLD,GRAND PRAIRIE,TX,75051
MOORE EL,CORPUS CHRISTI,TX,78414
EAST GRAND PREPARATORY ACADEMY,DALLAS,TX,75223
KEMP J H,KEMP,TX,75143
LEGENDS PROPERTY,LEWISVILLE,TX,75067
O'BRYANT INT,BELLVILLE,TX,77418
SPUR SCHOOL,SPUR,TX,79370
CHARLES GRAEBNER EL,SAN ANTONIO,TX,78225
ROBERTS EL,HOUSTON,TX,77030
AUSTWELL-TIVOLI EL,TIVOLI,TX,77990
BERNAL MIDDLE,SAN ANTONIO,TX,78253
TARVER EL,TEMPLE,TX,76502
UNIVERSAL ACADEMY,IRVING,TX,75062
GONZALO AND SOFIA GARCIA EL,EL PASO,TX,79932
BEN BOLT-PALITO BLANCO H S,BEN BOLT,TX,78342
GOLDEN RULE GRAND PRAIRIE,GRAND PRAIRIE,TX,75051
BURRUS EL,HOUSTON,TX,77022
WHITEHOUSE J H,WHITEHOUSE,TX,75791
GLADYS POLK EL,RICHWOOD,TX,77531
JOE M PIRTLE EL,TEMPLE,TX,76502
LAKESIDE EL,COPPELL,TX,75019
STOVALL MIDDLE,HOUSTON,TX,77037
GARDEN OAKS MONTESSORI,HOUSTON,TX,77018
ARLINGTON CLASSICS ACADEMY - ARKANSAS CAMPUS,ARLINGTON,TX,76016
RICHARD J LEE EL,DALLAS,TX,75019
BLACKWELL SCHOOL,BLACKWELL,TX,79506
CRESTVIEW EL,WACO,TX,76710
ALCOTT EL,HOUSTON,TX,77033
LILLIAN EL,ALVARADO,TX,76009
SOUTHWEST H S,FORT WORTH,TX,76133
WRIGHT EL,WEATHERFORD,TX,76086
JAIME ESCALANTE MIDDLE,PHARR,TX,78577
MOORE MST MAGNET SCHOOL,TYLER,TX,75701
AUSTIN H S,EL PASO,TX,79930
KLEIN ROAD EL,NEW BRAUNFELS,TX,78130
FREEMAN EL,GARLAND,TX,75040
NORTH JOSHUA EL,BURLESON,TX,76028
EARLY CHILDHOOD CENTER,KERRVILLE,TX,78028
WIEDERSTEIN EL,CIBOLO,TX,78108
ROGERS EL,FRISCO,TX,75034
EXCELL PROGRAM,WASKOM,TX,75692
MCLAUGHLIN STRICKLAND EL,FARMERS BRANCH,TX,75234
NUECES CO J J A E P,CORPUS CHRISTI,TX,78418
HICKS EL,HOUSTON,TX,77083
PREMIER H S OF ARLINGTON,ARLINGTON,TX,76011
SEGUIN EL,HOUSTON,TX,77087
RUTH CHERRY INT,ROYSE CITY,TX,75189
RICHARD MILBURN ACADEMY MIDLAND SOUTH,MIDLAND,TX,79701
HARMONY SCHOOL OF INNOVATION - BROWNSVILLE,BROWNSVILLE,TX,78526
RINGGOLD MIDDLE,RIO GRANDE CITY,TX,78582
OAKLEY EL,NEW CANEY,TX,77357
PARADISE MIDDLE,PARADISE,TX,76073
SOUTH HOUSTON INT,SO HOUSTON,TX,77587
CROCKETT MIDDLE,ODESSA,TX,79763
WHITEWRIGHT MIDDLE,WHITEWRIGHT,TX,75491
NANCY NEAL EL,MANSFIELD,TX,76063
EASTRIDGE EL,AMARILLO,TX,79107
FITZGERALD EL,ARLINGTON,TX,76018
AVERY SECONDARY,AVERY,TX,75554
THE VARNETT SCHOOL - EAST,HOUSTON,TX,77013
TH JOHNSON EL,TAYLOR,TX,76574
HIDALGO PARK EL,PHARR,TX,78577
WINONA H S,WINONA,TX,75792
DORIE MILLER INT,ENNIS,TX,75119
HERNANDEZ EL,SAN MARCOS,TX,78666
BRITAIN EL,IRVING,TX,75060
DEW EL,DEW,TX,75860
GRIFFIN EL,KATY,TX,77494
PREMIER H S ONLINE,LEWISVILLE,TX,75057
BONHAM EL,ABILENE,TX,79605
SOUTH KNOLL EL,COLLEGE STATION,TX,77840
TITCHE BLANTON AREA,DALLAS,TX,75231
NEW EL,RICHARDSON,TX,75081
HARLAN H S,SAN ANTONIO,TX,78253
GARDEN RIDGE EL,GARDEN RIDGE,TX,78266
CLINT ISD JJAEP,EL PASO,TX,79907
ARGYLE MIDDLE,ARGYLE,TX,76226
PEWITT H S,OMAHA,TX,75571
SERENITY HIGH,MCKINNEY,TX,75069
SUDAN H S,SUDAN,TX,79371
DEADY MIDDLE,HOUSTON,TX,77012
COLMESNEIL EL,COLMESNEIL,TX,75938
JJAEP DISCIPLINARY SCHOOL,LA PORTE,TX,77571
C STAINKE EL,DONNA,TX,78537
VERIBEST H S,VERIBEST,TX,76886
R V GROVES EL,WYLIE,TX,75098
MILLER HEIGHTS EL,BELTON,TX,76513
BOLDT EL,SAN ANTONIO,TX,78253
JUNCTION H S,JUNCTION,TX,76849
NORTHSIDE EL,EL CAMPO,TX,77437
CLARK EL,LAREDO,TX,78041
KOSTORYZ EL,CORPUS CHRISTI,TX,78415
PLUMMER EL,CEDAR HILL,TX,75104
K B POLK CENTER FOR ACADEMICALLY TALENTED & GIFTED,DALLAS,TX,75209
B H MACON EL,DALLAS,TX,75217
WOOTEN EL,AUSTIN,TX,78757
WINDSOR PARK G/T,CORPUS CHRISTI,TX,78412
SPECIAL PROG CTR/JJAEP,MCKINNEY,TX,75070
ISCHOOL VIRTUAL ACADEMY OF TEXAS,LEWISVILLE,TX,75057
BRANDEIS H S,SAN ANTONIO,TX,78249
VICTORIA WALKER EL,BAYTOWN,TX,77521
HENRIETTA H S,HENRIETTA,TX,76365
ROACH EL,GARLAND,TX,75041
CESAR CHAVEZ EL,LITTLE ELM,TX,75068
PSJA MEMORIAL EARLY COLLEGE H S,ALAMO,TX,78516
BARTON EL,IRVING,TX,75061
CAPT D SALINAS II EL,ALAMO,TX,78516
E-2 CENTRAL NE EL DON'T USE,EL PASO,TX,79925
HUMBLE EL,HUMBLE,TX,77338
BAKER EL,CANADIAN,TX,79014
WESLEY EL,HOUSTON,TX,77091
HUNTINGTON H S,HUNTINGTON,TX,75949
BECKVILLE JR-SR HIGH SCHOOL,BECKVILLE,TX,75631
RUNYAN EL,CONROE,TX,77301
MARINE CREEK LEADERSHIP ACADEMY,FORT WORTH,TX,76135
CYPRESS-FAIRBANKS J J A E P,HOUSTON,TX,77065
MCLENNAN COUNTY CHALLENGE ACADEMY,WACO,TX,76706
BROWNSVILLE LEARNING ACADEMY,BROWNSVILLE,TX,78521
DEANDA EL,HOUSTON,TX,77075
LYTLE H S,LYTLE,TX,78052
HARMONY SCHOOL OF EXCELLENCE-HOUSTON,HOUSTON,TX,77040
COMMERCE EL,COMMERCE,TX,75428
BLAND MIDDLE,CELESTE,TX,75423
PLEASANTON ISD SCHOOL OF CHOICE,PLEASANTON,TX,78064
LANGHAM EL,NEDERLAND,TX,77627
SINTON EL,SINTON,TX,78387
COLIN L POWELL EL,EL PASO,TX,79904
ANTHONY H S,ANTHONY,TX,79821
DALLAS COUNTY JUVENILE JUSTICE,DALLAS,TX,75212
MESA VERDE EL,AMARILLO,TX,79107
MACKEY EL,BALCH SPRINGS,TX,75180
GUERRERO EL,EL PASO,TX,79912
H BOB DANIEL SR INT,DUNCANVILLE,TX,75137
SAM HOUSTON H S,ARLINGTON,TX,76014
ELDER MIDDLE,FORT WORTH,TX,76164
PLEASANT GROVE H S,TEXARKANA,TX,75503
WYLIE WEST J H,ABILENE,TX,79606
DAINGERFIELD H S,DAINGERFIELD,TX,75638
PARKLAND EL,EL PASO,TX,79924
TRAVIS CO J J A E P,PFLUGERVILLE,TX,78660
ANTHONY EL,ANTHONY,TX,79821
TOM LEA JR EL,EL PASO,TX,79934
ROOSEVELT J H,LUBBOCK,TX,79403
HOLMES H S,SAN ANTONIO,TX,78238
EDINBURG NORTH H S,EDINBURG,TX,78539
BELAIRE EL,SAN ANGELO,TX,76905
SHADOW FOREST EL,KINGWOOD,TX,77345
LAMAR J H,ROSENBERG,TX,77471
HARMONY SCHOOL OF INNOVATION- EULESS,EULESS,TX,76040
LIT CYPR-MRCEVILLE H S,ORANGE,TX,77632
PRAIRILAND H S,PATTONVILLE,TX,75468
SMITH EL,AUSTIN,TX,78744
ALICE W DOUSE EL,KILLEEN,TX,76542
STONE HOTCHKISS AREA,DALLAS,TX,75231
BRAZOS SCHOOL FOR INQUIRY AND CREATIVITY TIDWELL,HOUSTON,TX,77091
GEORGETOWN CHARTER ACADEMY,GEORGETOWN,TX,78628
WILLIAM LEE HASTINGS EL,DUNCANVILLE,TX,75116
CHANDLER OAKS EL,ROUND ROCK,TX,78681
IDEA RIVERVIEW ACADEMY,BROWNSVILLE,TX,78520
RRISD EARLY COLLEGE H S,ROUND ROCK,TX,78665
UPLAND HEIGHTS EL,LUBBOCK,TX,79424
VERIBEST DAEP,SAN ANGELO,TX,76904
BEN MILAM EL,CAMERON,TX,76520
MART EL,MART,TX,76664
TAHOKA H S,TAHOKA,TX,79373
CURTSINGER EL,FRISCO,TX,75035
SCHOOL OF HEALTH PROFESSIONS,DALLAS,TX,75203
FARMERSVILLE J H,FARMERSVILLE,TX,75442
A C BLUNT MIDDLE,ARANSAS PASS,TX,78336
VISTA RIDGE H S,CEDAR PARK,TX,78613
SAN ISIDRO EL,SAN ISIDRO,TX,78588
DORA ROMERO EL,BROWNSVILLE,TX,78526
BRIDGEPORT H S,BRIDGEPORT,TX,76426
CROCKETT EL,WEATHERFORD,TX,76086
EVANS SES,CORPUS CHRISTI,TX,78401
COMO EL,FORT WORTH,TX,76107
WATERS EL,LUBBOCK,TX,79423
FLORENCE HILL EL,GRAND PRAIRIE,TX,75052
CITY VIEW JUNIOR/SENIOR HIGH,WICHITA FALLS,TX,76306
WINK EL,WINK,TX,79789
MITTELSTADT EL,KLEIN,TX,77379
DE CHAUMES EL,HOUSTON,TX,77076
JEFFERSON MIDDLE,SAN ANTONIO,TX,78254
BEAR BRANCH EL,MAGNOLIA,TX,77354
MANUEL JARA EL,FORT WORTH,TX,76164
MEADOWBROOK EL,FORT WORTH,TX,76103
LITTLEFIELD J H,LITTLEFIELD,TX,79339
KIRBY MIDDLE,WICHITA FALLS,TX,76306
CREEKVIEW H S,CARROLLTON,TX,75007
JOHN H SHARY EL,MISSION,TX,78574
BASTROP H S,BASTROP,TX,78602
GARCIA EL,HOUSTON,TX,77093
FRIENDSHIP EL,KELLER,TX,76244
FONVILLE MIDDLE,HOUSTON,TX,77076
CEDAR PARK CHARTER ACADEMY,CEDAR PARK,TX,78613
ASSETS,MANVEL,TX,77578
AUSTIN EL,EDINBURG,TX,78539
ARTHUR MILLER CAREER CENTER,KATY,TX,77493
A M OCHOA EL,DONNA,TX,78537
BISHOP H S,BISHOP,TX,78343
HARMONY SCHOOL OF EXCELLENCE - EL PASO,EL PASO,TX,79907
CARPENTER HILL EL,BUDA,TX,78610
IDEA NAJIM ACADEMY,SAN ANTONIO,TX,78220
BONHAM EL,BRYAN,TX,77803
MONTGOMERY EL,MONTGOMERY,TX,77316
DARTMOUTH EL,RICHARDSON,TX,75081
JOSEPH J RHOADS LEARNING CENTER,DALLAS,TX,75210
TEJEDA JUNIOR ACADEMY,SAN ANTONIO,TX,78221
HARWOOD J H,BEDFORD,TX,76021
LAKEWOOD EL,TOMBALL,TX,77377
SHADOW OAKS EL,HOUSTON,TX,77043
MCDONALD MIDDLE,MESQUITE,TX,75150
HOBBS WILLIAMS EL,GRAND PRAIRIE,TX,75051
CLARKE EL,FORT HOOD,TX,76544
STAFFORD H S,STAFFORD,TX,77477
BRAUN STATION EL,SAN ANTONIO,TX,78254
HOLLIDAY EL,HOLLIDAY,TX,76366
KENNEDALE ALTER ED PROG,KENNEDALE,TX,76060
MITCHELL EL,DALLAS,TX,75287
NORTH SIDE H S,FORT WORTH,TX,76164
JACKIE MAE TOWNSELL EL,IRVING,TX,75038
LAKELAND EL,HUMBLE,TX,77338
ROBERT B SEWELL EL,SACHSE,TX,75048
ROGERS ACADEMY,SAN ANTONIO,TX,78212
GARDENDALE EL,SAN ANTONIO,TX,78237
HIGHTOWER H S,MISSOURI CITY,TX,77459
AEP CAMPUS,HOWE,TX,75459
CROSS TIMBERS EL,AZLE,TX,76020
GATEWAY CHARTER ACADEMY,DALLAS,TX,75241
ZILKER EL,AUSTIN,TX,78704
GIESINGER EL,CONROE,TX,77304
GUZMAN EL,DONNA,TX,78537
WOLFE CITY H S,WOLFE CITY,TX,75496
BOWIE J H,BOWIE,TX,76230
HARMONY SCHOOL OF INGENUITY-HOUSTON,HOUSTON,TX,77025
NORTHWEST H S,JUSTIN,TX,76247
LEVELLAND H S,LEVELLAND,TX,79336
W R HATFIELD EL,JUSTIN,TX,76247
BLOOMING GROVE H S,BLOOMING GROVE,TX,76626
MOORE EL,HOUSTON,TX,77089
HERITAGE MIDDLE,LUBBOCK,TX,79424
BOVINA H S,BOVINA,TX,79009
HIDALGO COUNTY BOOT CAMP,WESLACO,TX,78596
ALICE PONDER EL,MANSFIELD,TX,76063
VALLEY MILLS H S,VALLEY MILLS,TX,76689
BRYSON SCHOOL,BRYSON,TX,76427
LINCOLN HUMANITIES/COMMUNICATIONS MAGNET HIGH SCH,DALLAS,TX,75215
SHEPHERD PRI,SHEPHERD,TX,77371
BELL COUNTY DAEP,LITTLE RIVER ACADEMY,TX,76554
CHARLOTTE H S,CHARLOTTE,TX,78011
CAMERON CO J J A E P,RIO HONDO,TX,78583
COLLEYVILLE HERITAGE H S,COLLEYVILLE,TX,76034
IDEA BROWNSVILLE COLLEGE PREPARATORY,BROWNSVILLE,TX,78526
THURGOOD MARSHALL LEADERSHIP ACADEMY,GRAND PRAIRIE,TX,75052
ROSA PARKS/MILLBROOK EL,LANCASTER,TX,75146
NORTH SHORE EL,HOUSTON,TX,77015
BRIDGE CITY INT,BRIDGE CITY,TX,77611
CHAMBERS EL,HOUSTON,TX,77072
OYSTER CREEK EL,SUGAR LAND,TX,77498
LONGVIEW H S,LONGVIEW,TX,75605
MADISONVILLE J H,MADISONVILLE,TX,77864
METRO OPPORTUNITY,FORT WORTH,TX,76106
PALO PINTO EL,PALO PINTO,TX,76484
SHADYDALE EL,HOUSTON,TX,77016
RIDGEVIEW MIDDLE,ROUND ROCK,TX,78664
TRADEWIND EL,AMARILLO,TX,79118
DODD EL,WYLIE,TX,75098
SEMINOLE SUCCESS CTR,SEMINOLE,TX,79360
YES PREP - 5TH WARD,HOUSTON,TX,77020
BREWER MIDDLE,WHITE SETTLEMENT,TX,76108
VANDEGRIFT H S,AUSTIN,TX,78750
ACADEMY H S,LITTLE RIVER,TX,76554
MT ENTERPRISE H S,MT ENTERPRISE,TX,75681
WEST SABINE H S,PINELAND,TX,75968
PINEY WOODS EL,SPLENDORA,TX,77372
EASTLAKE H S,EL PASO,TX,79928
VILLAGE EL,GEORGETOWN,TX,78633
SOUTH EL,LEVELLAND,TX,79336
TRAVIS EL,PORT ARTHUR,TX,77642
GEORGE WEST PRI,GEORGE WEST,TX,78022
SKIDMORE-TYNAN J H,SKIDMORE,TX,78389
AIKIN EL,PARIS,TX,75460
HICKMAN EL,GARLAND,TX,75044
ANDERSON H S,AUSTIN,TX,78759
TAYLOR RAY EL,ROSENBERG,TX,77471
MARLIN HIGH,MARLIN,TX,76661
CLEAR CREEK INT,SANGER,TX,76266
KINDRED EL,SAN ANTONIO,TX,78224
EHRHART SCHOOL,BEAUMONT,TX,77701
HARMONY SCIENCE ACADEMY - DALLAS,DALLAS,TX,75243
ACADEMY JJAEP,LITTLE RIVER,TX,76554
BROWN PRI,SMITHVILLE,TX,78957
MEDLOCK YOUTH VILLAGE,DALLAS,TX,75241
RIDGE POINT H S,MISSOURI CITY,TX,77459
SAN LEON EL,DICKINSON,TX,77539
SAM HOUSTON EL,WESLACO,TX,78596
CHALLENGE ACADEMY,WACO,TX,76706
EVERMAN ACADEMY H S,EVERMAN,TX,76140
INNOVATION DESIGN ENTREPRENEURSHIP ACADEMY,DALLAS,TX,75204
NEW MIDDLE #9 AT GULF WAY,ROUND ROCK,TX,78681
BRAZOS CO JUVENILE DETENTION CENTER,BRYAN,TX,77803
HCC LIFE SKILLS PROGRAM,HOUSTON,TX,77004
JACK LUMMUS INT,ENNIS,TX,75119
UPLIFT WISDOM SECONDARY,DALLAS,TX,75232
HARPOOL MIDDLE,LANTANA,TX,76266
PATHWAYS ACADEMIC CAMPUS,KILLEEN,TX,76542
SGT LEONEL TREVINO EL,SAN JUAN,TX,78589
